<?xml version='1.0' encoding='UTF-8'?>
<gpx version="1.1" creator="https://www.komoot.de" xmlns="http://www.topografix.com/GPX/1/1" xmlns:xsi="http://www.w3.org/2001/XMLSchema-instance" xsi:schemaLocation="http://www.topografix.com/GPX/1/1 http://www.topografix.com/GPX/1/1/gpx.xsd">
  <metadata>
    <name>Lousberglauf powered by STAWAG</name>
    <author>
      <link href="https://www.komoot.de">
        <text>komoot</text>
        <type>text/html</type>
      </link>
    </author>
  </metadata>
  <trk>
    <name>Lousberglauf powered by STAWAG</name>
    <trkseg>
      <trkpt lat="50.788454" lon="6.071766">
        <ele>197.638751</ele>
        <time>2022-06-27T10:33:25.000Z</time>
      </trkpt>
      <trkpt lat="50.788352" lon="6.071837">
        <ele>197.638751</ele>
        <time>2022-06-27T10:33:30.000Z</time>
      </trkpt>
      <trkpt lat="50.788269" lon="6.071895">
        <ele>197.638751</ele>
        <time>2022-06-27T10:33:33.000Z</time>
      </trkpt>
      <trkpt lat="50.788179" lon="6.071997">
        <ele>197.638751</ele>
        <time>2022-06-27T10:33:38.000Z</time>
      </trkpt>
      <trkpt lat="50.788151" lon="6.072153">
        <ele>197.638751</ele>
        <time>2022-06-27T10:33:42.000Z</time>
      </trkpt>
      <trkpt lat="50.788088" lon="6.072273">
        <ele>197.638751</ele>
        <time>2022-06-27T10:33:46.000Z</time>
      </trkpt>
      <trkpt lat="50.788022" lon="6.072388">
        <ele>197.638751</ele>
        <time>2022-06-27T10:33:50.000Z</time>
      </trkpt>
      <trkpt lat="50.787934" lon="6.072510">
        <ele>197.638751</ele>
        <time>2022-06-27T10:33:54.000Z</time>
      </trkpt>
      <trkpt lat="50.787872" lon="6.072630">
        <ele>197.638751</ele>
        <time>2022-06-27T10:33:58.000Z</time>
      </trkpt>
      <trkpt lat="50.787812" lon="6.072747">
        <ele>197.738740</ele>
        <time>2022-06-27T10:34:02.000Z</time>
      </trkpt>
      <trkpt lat="50.787752" lon="6.072852">
        <ele>198.125592</ele>
        <time>2022-06-27T10:34:05.000Z</time>
      </trkpt>
      <trkpt lat="50.787679" lon="6.072991">
        <ele>198.619503</ele>
        <time>2022-06-27T10:34:09.000Z</time>
      </trkpt>
      <trkpt lat="50.787604" lon="6.073102">
        <ele>199.063561</ele>
        <time>2022-06-27T10:34:13.000Z</time>
      </trkpt>
      <trkpt lat="50.787524" lon="6.073218">
        <ele>199.532766</ele>
        <time>2022-06-27T10:34:17.000Z</time>
      </trkpt>
      <trkpt lat="50.787458" lon="6.073319">
        <ele>199.929793</ele>
        <time>2022-06-27T10:34:20.000Z</time>
      </trkpt>
      <trkpt lat="50.787392" lon="6.073448">
        <ele>200.383380</ele>
        <time>2022-06-27T10:34:24.000Z</time>
      </trkpt>
      <trkpt lat="50.787327" lon="6.073583">
        <ele>200.847198</ele>
        <time>2022-06-27T10:34:28.000Z</time>
      </trkpt>
      <trkpt lat="50.787243" lon="6.073696">
        <ele>201.323941</ele>
        <time>2022-06-27T10:34:33.000Z</time>
      </trkpt>
      <trkpt lat="50.787157" lon="6.073821">
        <ele>201.828892</ele>
        <time>2022-06-27T10:34:37.000Z</time>
      </trkpt>
      <trkpt lat="50.787101" lon="6.073963">
        <ele>202.286340</ele>
        <time>2022-06-27T10:34:41.000Z</time>
      </trkpt>
      <trkpt lat="50.787036" lon="6.074086">
        <ele>202.724518</ele>
        <time>2022-06-27T10:34:44.999Z</time>
      </trkpt>
      <trkpt lat="50.786985" lon="6.074233">
        <ele>203.182835</ele>
        <time>2022-06-27T10:34:48.999Z</time>
      </trkpt>
      <trkpt lat="50.786917" lon="6.074348">
        <ele>203.613222</ele>
        <time>2022-06-27T10:34:52.999Z</time>
      </trkpt>
      <trkpt lat="50.786838" lon="6.074460">
        <ele>204.071884</ele>
        <time>2022-06-27T10:34:56.999Z</time>
      </trkpt>
      <trkpt lat="50.786786" lon="6.074603">
        <ele>204.522789</ele>
        <time>2022-06-27T10:35:00.999Z</time>
      </trkpt>
      <trkpt lat="50.786730" lon="6.074731">
        <ele>204.948254</ele>
        <time>2022-06-27T10:35:04.999Z</time>
      </trkpt>
      <trkpt lat="50.786670" lon="6.074860">
        <ele>205.385992</ele>
        <time>2022-06-27T10:35:08.999Z</time>
      </trkpt>
      <trkpt lat="50.786615" lon="6.074985">
        <ele>205.545962</ele>
        <time>2022-06-27T10:35:12.999Z</time>
      </trkpt>
      <trkpt lat="50.786564" lon="6.075131">
        <ele>205.700127</ele>
        <time>2022-06-27T10:35:17.999Z</time>
      </trkpt>
      <trkpt lat="50.786499" lon="6.075260">
        <ele>205.852588</ele>
        <time>2022-06-27T10:35:21.999Z</time>
      </trkpt>
      <trkpt lat="50.786445" lon="6.075374">
        <ele>205.984244</ele>
        <time>2022-06-27T10:35:25.999Z</time>
      </trkpt>
      <trkpt lat="50.786394" lon="6.075499">
        <ele>206.121742</ele>
        <time>2022-06-27T10:35:29.999Z</time>
      </trkpt>
      <trkpt lat="50.786325" lon="6.075629">
        <ele>206.278621</ele>
        <time>2022-06-27T10:35:33.999Z</time>
      </trkpt>
      <trkpt lat="50.786255" lon="6.075779">
        <ele>206.450935</ele>
        <time>2022-06-27T10:35:38.999Z</time>
      </trkpt>
      <trkpt lat="50.786207" lon="6.075907">
        <ele>206.588483</ele>
        <time>2022-06-27T10:35:42.999Z</time>
      </trkpt>
      <trkpt lat="50.786134" lon="6.076029">
        <ele>206.743734</ele>
        <time>2022-06-27T10:35:46.999Z</time>
      </trkpt>
      <trkpt lat="50.786058" lon="6.076138">
        <ele>206.893712</ele>
        <time>2022-06-27T10:35:50.999Z</time>
      </trkpt>
      <trkpt lat="50.785990" lon="6.076267">
        <ele>207.048945</ele>
        <time>2022-06-27T10:35:55.999Z</time>
      </trkpt>
      <trkpt lat="50.785910" lon="6.076364">
        <ele>207.196306</ele>
        <time>2022-06-27T10:35:58.999Z</time>
      </trkpt>
      <trkpt lat="50.785848" lon="6.076473">
        <ele>207.331821</ele>
        <time>2022-06-27T10:36:02.999Z</time>
      </trkpt>
      <trkpt lat="50.785778" lon="6.076568">
        <ele>207.466660</ele>
        <time>2022-06-27T10:36:06.999Z</time>
      </trkpt>
      <trkpt lat="50.785716" lon="6.076674">
        <ele>207.600127</ele>
        <time>2022-06-27T10:36:11.000Z</time>
      </trkpt>
      <trkpt lat="50.785638" lon="6.076790">
        <ele>207.756642</ele>
        <time>2022-06-27T10:36:15.000Z</time>
      </trkpt>
      <trkpt lat="50.785552" lon="6.076906">
        <ele>207.921872</ele>
        <time>2022-06-27T10:36:19.000Z</time>
      </trkpt>
      <trkpt lat="50.785480" lon="6.077029">
        <ele>208.019707</ele>
        <time>2022-06-27T10:36:23.000Z</time>
      </trkpt>
      <trkpt lat="50.785401" lon="6.077140">
        <ele>207.901425</ele>
        <time>2022-06-27T10:36:27.000Z</time>
      </trkpt>
      <trkpt lat="50.785349" lon="6.077271">
        <ele>207.791960</ele>
        <time>2022-06-27T10:36:31.000Z</time>
      </trkpt>
      <trkpt lat="50.785279" lon="6.077396">
        <ele>207.673786</ele>
        <time>2022-06-27T10:36:35.000Z</time>
      </trkpt>
      <trkpt lat="50.785218" lon="6.077507">
        <ele>207.569704</ele>
        <time>2022-06-27T10:36:39.000Z</time>
      </trkpt>
      <trkpt lat="50.785155" lon="6.077622">
        <ele>207.462017</ele>
        <time>2022-06-27T10:36:43.000Z</time>
      </trkpt>
      <trkpt lat="50.785086" lon="6.077745">
        <ele>207.345644</ele>
        <time>2022-06-27T10:36:47.000Z</time>
      </trkpt>
      <trkpt lat="50.785014" lon="6.077861">
        <ele>207.230602</ele>
        <time>2022-06-27T10:36:50.999Z</time>
      </trkpt>
      <trkpt lat="50.784951" lon="6.077991">
        <ele>207.114683</ele>
        <time>2022-06-27T10:36:54.999Z</time>
      </trkpt>
      <trkpt lat="50.784897" lon="6.078123">
        <ele>207.003417</ele>
        <time>2022-06-27T10:36:58.999Z</time>
      </trkpt>
      <trkpt lat="50.784823" lon="6.078237">
        <ele>206.887787</ele>
        <time>2022-06-27T10:37:02.999Z</time>
      </trkpt>
      <trkpt lat="50.784764" lon="6.078360">
        <ele>206.778522</ele>
        <time>2022-06-27T10:37:06.999Z</time>
      </trkpt>
      <trkpt lat="50.784694" lon="6.078476">
        <ele>206.665037</ele>
        <time>2022-06-27T10:37:10.999Z</time>
      </trkpt>
      <trkpt lat="50.784631" lon="6.078609">
        <ele>206.547425</ele>
        <time>2022-06-27T10:37:14.999Z</time>
      </trkpt>
      <trkpt lat="50.784566" lon="6.078743">
        <ele>206.427897</ele>
        <time>2022-06-27T10:37:19.000Z</time>
      </trkpt>
      <trkpt lat="50.784509" lon="6.078867">
        <ele>206.319398</ele>
        <time>2022-06-27T10:37:23.000Z</time>
      </trkpt>
      <trkpt lat="50.784453" lon="6.079005">
        <ele>206.203349</ele>
        <time>2022-06-27T10:37:27.000Z</time>
      </trkpt>
      <trkpt lat="50.784424" lon="6.079156">
        <ele>206.091664</ele>
        <time>2022-06-27T10:37:31.000Z</time>
      </trkpt>
      <trkpt lat="50.784396" lon="6.079303">
        <ele>206.035366</ele>
        <time>2022-06-27T10:37:35.000Z</time>
      </trkpt>
      <trkpt lat="50.784367" lon="6.079451">
        <ele>206.045020</ele>
        <time>2022-06-27T10:37:39.000Z</time>
      </trkpt>
      <trkpt lat="50.784336" lon="6.079627">
        <ele>206.056403</ele>
        <time>2022-06-27T10:37:43.000Z</time>
      </trkpt>
      <trkpt lat="50.784313" lon="6.079778">
        <ele>206.066081</ele>
        <time>2022-06-27T10:37:47.000Z</time>
      </trkpt>
      <trkpt lat="50.784276" lon="6.079926">
        <ele>206.075997</ele>
        <time>2022-06-27T10:37:51.000Z</time>
      </trkpt>
      <trkpt lat="50.784224" lon="6.080064">
        <ele>206.086006</ele>
        <time>2022-06-27T10:37:55.000Z</time>
      </trkpt>
      <trkpt lat="50.784187" lon="6.080222">
        <ele>206.096504</ele>
        <time>2022-06-27T10:37:59.000Z</time>
      </trkpt>
      <trkpt lat="50.784160" lon="6.080389">
        <ele>206.107244</ele>
        <time>2022-06-27T10:38:03.000Z</time>
      </trkpt>
      <trkpt lat="50.784127" lon="6.080540">
        <ele>206.117199</ele>
        <time>2022-06-27T10:38:07.000Z</time>
      </trkpt>
      <trkpt lat="50.784062" lon="6.080648">
        <ele>206.126489</ele>
        <time>2022-06-27T10:38:11.000Z</time>
      </trkpt>
      <trkpt lat="50.784011" lon="6.080790">
        <ele>206.136665</ele>
        <time>2022-06-27T10:38:15.000Z</time>
      </trkpt>
      <trkpt lat="50.783979" lon="6.080952">
        <ele>206.147240</ele>
        <time>2022-06-27T10:38:19.000Z</time>
      </trkpt>
      <trkpt lat="50.783930" lon="6.081083">
        <ele>206.156723</ele>
        <time>2022-06-27T10:38:23.000Z</time>
      </trkpt>
      <trkpt lat="50.783877" lon="6.081198">
        <ele>206.165590</ele>
        <time>2022-06-27T10:38:27.000Z</time>
      </trkpt>
      <trkpt lat="50.783850" lon="6.081379">
        <ele>206.177178</ele>
        <time>2022-06-27T10:38:32.000Z</time>
      </trkpt>
      <trkpt lat="50.783799" lon="6.081531">
        <ele>206.187899</ele>
        <time>2022-06-27T10:38:36.000Z</time>
      </trkpt>
      <trkpt lat="50.783751" lon="6.081700">
        <ele>206.199443</ele>
        <time>2022-06-27T10:38:41.000Z</time>
      </trkpt>
      <trkpt lat="50.783742" lon="6.081857">
        <ele>206.238545</ele>
        <time>2022-06-27T10:38:45.000Z</time>
      </trkpt>
      <trkpt lat="50.783701" lon="6.082009">
        <ele>206.590596</ele>
        <time>2022-06-27T10:38:50.000Z</time>
      </trkpt>
      <trkpt lat="50.783654" lon="6.082131">
        <ele>206.894946</ele>
        <time>2022-06-27T10:38:54.000Z</time>
      </trkpt>
      <trkpt lat="50.783584" lon="6.082252">
        <ele>207.244343</ele>
        <time>2022-06-27T10:38:58.000Z</time>
      </trkpt>
      <trkpt lat="50.783511" lon="6.082385">
        <ele>207.619553</ele>
        <time>2022-06-27T10:39:02.000Z</time>
      </trkpt>
      <trkpt lat="50.783436" lon="6.082496">
        <ele>207.965647</ele>
        <time>2022-06-27T10:39:05.000Z</time>
      </trkpt>
      <trkpt lat="50.783356" lon="6.082604">
        <ele>208.320045</ele>
        <time>2022-06-27T10:39:08.000Z</time>
      </trkpt>
      <trkpt lat="50.783290" lon="6.082746">
        <ele>208.695503</ele>
        <time>2022-06-27T10:39:11.999Z</time>
      </trkpt>
      <trkpt lat="50.783228" lon="6.082893">
        <ele>209.071953</ele>
        <time>2022-06-27T10:39:16.000Z</time>
      </trkpt>
      <trkpt lat="50.783213" lon="6.083046">
        <ele>209.401795</ele>
        <time>2022-06-27T10:39:20.000Z</time>
      </trkpt>
      <trkpt lat="50.783273" lon="6.083175">
        <ele>209.742965</ele>
        <time>2022-06-27T10:39:24.000Z</time>
      </trkpt>
      <trkpt lat="50.783334" lon="6.083290">
        <ele>210.062758</ele>
        <time>2022-06-27T10:39:28.000Z</time>
      </trkpt>
      <trkpt lat="50.783402" lon="6.083428">
        <ele>210.435489</ele>
        <time>2022-06-27T10:39:32.000Z</time>
      </trkpt>
      <trkpt lat="50.783476" lon="6.083555">
        <ele>210.803417</ele>
        <time>2022-06-27T10:39:37.000Z</time>
      </trkpt>
      <trkpt lat="50.783560" lon="6.083678">
        <ele>211.189126</ele>
        <time>2022-06-27T10:39:42.000Z</time>
      </trkpt>
      <trkpt lat="50.783638" lon="6.083777">
        <ele>211.526105</ele>
        <time>2022-06-27T10:39:47.000Z</time>
      </trkpt>
      <trkpt lat="50.783697" lon="6.083890">
        <ele>211.838310</ele>
        <time>2022-06-27T10:39:51.000Z</time>
      </trkpt>
      <trkpt lat="50.783782" lon="6.084004">
        <ele>212.213822</ele>
        <time>2022-06-27T10:39:56.000Z</time>
      </trkpt>
      <trkpt lat="50.783862" lon="6.084090">
        <ele>212.737816</ele>
        <time>2022-06-27T10:40:00.000Z</time>
      </trkpt>
      <trkpt lat="50.783957" lon="6.084149">
        <ele>213.333167</ele>
        <time>2022-06-27T10:40:05.000Z</time>
      </trkpt>
      <trkpt lat="50.784046" lon="6.084263">
        <ele>214.001221</ele>
        <time>2022-06-27T10:40:10.000Z</time>
      </trkpt>
      <trkpt lat="50.784129" lon="6.084324">
        <ele>214.535098</ele>
        <time>2022-06-27T10:40:14.000Z</time>
      </trkpt>
      <trkpt lat="50.784218" lon="6.084370">
        <ele>215.081275</ele>
        <time>2022-06-27T10:40:18.000Z</time>
      </trkpt>
      <trkpt lat="50.784303" lon="6.084432">
        <ele>215.627288</ele>
        <time>2022-06-27T10:40:22.000Z</time>
      </trkpt>
      <trkpt lat="50.784399" lon="6.084449">
        <ele>216.190781</ele>
        <time>2022-06-27T10:40:26.000Z</time>
      </trkpt>
      <trkpt lat="50.784489" lon="6.084476">
        <ele>216.725135</ele>
        <time>2022-06-27T10:40:30.000Z</time>
      </trkpt>
      <trkpt lat="50.784587" lon="6.084508">
        <ele>217.308851</ele>
        <time>2022-06-27T10:40:34.000Z</time>
      </trkpt>
      <trkpt lat="50.784682" lon="6.084507">
        <ele>217.863024</ele>
        <time>2022-06-27T10:40:38.000Z</time>
      </trkpt>
      <trkpt lat="50.784792" lon="6.084537">
        <ele>218.514152</ele>
        <time>2022-06-27T10:40:42.000Z</time>
      </trkpt>
      <trkpt lat="50.784897" lon="6.084565">
        <ele>219.135290</ele>
        <time>2022-06-27T10:40:46.000Z</time>
      </trkpt>
      <trkpt lat="50.784998" lon="6.084586">
        <ele>219.729519</ele>
        <time>2022-06-27T10:40:51.000Z</time>
      </trkpt>
      <trkpt lat="50.785102" lon="6.084574">
        <ele>220.337791</ele>
        <time>2022-06-27T10:41:00.000Z</time>
      </trkpt>
      <trkpt lat="50.785196" lon="6.084582">
        <ele>220.886911</ele>
        <time>2022-06-27T10:41:05.999Z</time>
      </trkpt>
      <trkpt lat="50.785286" lon="6.084606">
        <ele>221.419315</ele>
        <time>2022-06-27T10:41:09.999Z</time>
      </trkpt>
      <trkpt lat="50.785385" lon="6.084609">
        <ele>221.996915</ele>
        <time>2022-06-27T10:41:13.999Z</time>
      </trkpt>
      <trkpt lat="50.785477" lon="6.084599">
        <ele>222.534841</ele>
        <time>2022-06-27T10:41:17.999Z</time>
      </trkpt>
      <trkpt lat="50.785565" lon="6.084574">
        <ele>222.618571</ele>
        <time>2022-06-27T10:41:21.999Z</time>
      </trkpt>
      <trkpt lat="50.785659" lon="6.084515">
        <ele>222.334587</ele>
        <time>2022-06-27T10:41:26.999Z</time>
      </trkpt>
      <trkpt lat="50.785731" lon="6.084384">
        <ele>222.026422</ele>
        <time>2022-06-27T10:41:31.999Z</time>
      </trkpt>
      <trkpt lat="50.785824" lon="6.084351">
        <ele>221.758779</ele>
        <time>2022-06-27T10:41:35.999Z</time>
      </trkpt>
      <trkpt lat="50.785919" lon="6.084270">
        <ele>221.455721</ele>
        <time>2022-06-27T10:41:39.999Z</time>
      </trkpt>
      <trkpt lat="50.786014" lon="6.084172">
        <ele>221.137233</ele>
        <time>2022-06-27T10:41:44.999Z</time>
      </trkpt>
      <trkpt lat="50.786110" lon="6.084077">
        <ele>220.819246</ele>
        <time>2022-06-27T10:41:49.999Z</time>
      </trkpt>
      <trkpt lat="50.786222" lon="6.083979">
        <ele>220.459825</ele>
        <time>2022-06-27T10:41:54.999Z</time>
      </trkpt>
      <trkpt lat="50.786290" lon="6.083880">
        <ele>220.200302</ele>
        <time>2022-06-27T10:41:58.000Z</time>
      </trkpt>
      <trkpt lat="50.786367" lon="6.083751">
        <ele>219.885342</ele>
        <time>2022-06-27T10:42:03.000Z</time>
      </trkpt>
      <trkpt lat="50.786419" lon="6.083593">
        <ele>219.569112</ele>
        <time>2022-06-27T10:42:07.000Z</time>
      </trkpt>
      <trkpt lat="50.786477" lon="6.083455">
        <ele>219.274922</ele>
        <time>2022-06-27T10:42:11.000Z</time>
      </trkpt>
      <trkpt lat="50.786509" lon="6.083304">
        <ele>218.992191</ele>
        <time>2022-06-27T10:42:14.000Z</time>
      </trkpt>
      <trkpt lat="50.786588" lon="6.083184">
        <ele>218.684625</ele>
        <time>2022-06-27T10:42:17.000Z</time>
      </trkpt>
      <trkpt lat="50.786689" lon="6.083101">
        <ele>218.365015</ele>
        <time>2022-06-27T10:42:20.000Z</time>
      </trkpt>
      <trkpt lat="50.786776" lon="6.083044">
        <ele>218.100584</ele>
        <time>2022-06-27T10:42:23.000Z</time>
      </trkpt>
      <trkpt lat="50.786842" lon="6.082943">
        <ele>217.842711</ele>
        <time>2022-06-27T10:42:26.000Z</time>
      </trkpt>
      <trkpt lat="50.786917" lon="6.082834">
        <ele>217.714460</ele>
        <time>2022-06-27T10:42:29.000Z</time>
      </trkpt>
      <trkpt lat="50.786985" lon="6.082708">
        <ele>217.722823</ele>
        <time>2022-06-27T10:42:33.000Z</time>
      </trkpt>
      <trkpt lat="50.787062" lon="6.082573">
        <ele>217.732002</ele>
        <time>2022-06-27T10:42:37.000Z</time>
      </trkpt>
      <trkpt lat="50.787161" lon="6.082422">
        <ele>217.742983</ele>
        <time>2022-06-27T10:42:43.000Z</time>
      </trkpt>
      <trkpt lat="50.787252" lon="6.082256">
        <ele>217.754075</ele>
        <time>2022-06-27T10:42:46.000Z</time>
      </trkpt>
      <trkpt lat="50.787333" lon="6.082144">
        <ele>217.762665</ele>
        <time>2022-06-27T10:42:49.000Z</time>
      </trkpt>
      <trkpt lat="50.787421" lon="6.082031">
        <ele>217.771716</ele>
        <time>2022-06-27T10:42:53.000Z</time>
      </trkpt>
      <trkpt lat="50.787488" lon="6.081936">
        <ele>217.778900</ele>
        <time>2022-06-27T10:42:56.000Z</time>
      </trkpt>
      <trkpt lat="50.787567" lon="6.081852">
        <ele>217.786501</ele>
        <time>2022-06-27T10:42:59.000Z</time>
      </trkpt>
      <trkpt lat="50.787611" lon="6.081723">
        <ele>217.793900</ele>
        <time>2022-06-27T10:43:02.000Z</time>
      </trkpt>
      <trkpt lat="50.787681" lon="6.081618">
        <ele>217.801603</ele>
        <time>2022-06-27T10:43:05.000Z</time>
      </trkpt>
      <trkpt lat="50.787770" lon="6.081494">
        <ele>217.811073</ele>
        <time>2022-06-27T10:43:07.999Z</time>
      </trkpt>
      <trkpt lat="50.787847" lon="6.081353">
        <ele>217.820479</ele>
        <time>2022-06-27T10:43:11.999Z</time>
      </trkpt>
      <trkpt lat="50.787935" lon="6.081250">
        <ele>217.829220</ele>
        <time>2022-06-27T10:43:16.999Z</time>
      </trkpt>
      <trkpt lat="50.788014" lon="6.081170">
        <ele>217.836710</ele>
        <time>2022-06-27T10:43:20.999Z</time>
      </trkpt>
      <trkpt lat="50.788077" lon="6.081040">
        <ele>217.844979</ele>
        <time>2022-06-27T10:43:25.999Z</time>
      </trkpt>
      <trkpt lat="50.788164" lon="6.080937">
        <ele>217.853656</ele>
        <time>2022-06-27T10:43:28.999Z</time>
      </trkpt>
      <trkpt lat="50.788217" lon="6.080822">
        <ele>218.221819</ele>
        <time>2022-06-27T10:43:31.999Z</time>
      </trkpt>
      <trkpt lat="50.788253" lon="6.080692">
        <ele>218.592101</ele>
        <time>2022-06-27T10:43:34.999Z</time>
      </trkpt>
      <trkpt lat="50.788333" lon="6.080565">
        <ele>219.059850</ele>
        <time>2022-06-27T10:43:38.999Z</time>
      </trkpt>
      <trkpt lat="50.788410" lon="6.080481">
        <ele>219.445867</ele>
        <time>2022-06-27T10:43:41.999Z</time>
      </trkpt>
      <trkpt lat="50.788502" lon="6.080364">
        <ele>219.933035</ele>
        <time>2022-06-27T10:43:45.999Z</time>
      </trkpt>
      <trkpt lat="50.788588" lon="6.080227">
        <ele>220.436742</ele>
        <time>2022-06-27T10:43:49.999Z</time>
      </trkpt>
      <trkpt lat="50.788663" lon="6.080108">
        <ele>220.875140</ele>
        <time>2022-06-27T10:43:53.999Z</time>
      </trkpt>
      <trkpt lat="50.788743" lon="6.079994">
        <ele>221.319507</ele>
        <time>2022-06-27T10:43:57.999Z</time>
      </trkpt>
      <trkpt lat="50.788818" lon="6.079861">
        <ele>221.784486</ele>
        <time>2022-06-27T10:44:01.999Z</time>
      </trkpt>
      <trkpt lat="50.788814" lon="6.079688">
        <ele>222.236138</ele>
        <time>2022-06-27T10:44:05.999Z</time>
      </trkpt>
      <trkpt lat="50.788785" lon="6.079520">
        <ele>222.690490</ele>
        <time>2022-06-27T10:44:10.999Z</time>
      </trkpt>
      <trkpt lat="50.788727" lon="6.079377">
        <ele>223.133755</ele>
        <time>2022-06-27T10:44:15.999Z</time>
      </trkpt>
      <trkpt lat="50.788674" lon="6.079256">
        <ele>223.517811</ele>
        <time>2022-06-27T10:44:19.999Z</time>
      </trkpt>
      <trkpt lat="50.788636" lon="6.079120">
        <ele>223.905742</ele>
        <time>2022-06-27T10:44:23.999Z</time>
      </trkpt>
      <trkpt lat="50.788617" lon="6.078962">
        <ele>224.325351</ele>
        <time>2022-06-27T10:44:27.999Z</time>
      </trkpt>
      <trkpt lat="50.788594" lon="6.078794">
        <ele>224.773819</ele>
        <time>2022-06-27T10:44:31.999Z</time>
      </trkpt>
      <trkpt lat="50.788567" lon="6.078656">
        <ele>225.150706</ele>
        <time>2022-06-27T10:44:35.999Z</time>
      </trkpt>
      <trkpt lat="50.788555" lon="6.078501">
        <ele>225.823027</ele>
        <time>2022-06-27T10:44:39.999Z</time>
      </trkpt>
      <trkpt lat="50.788566" lon="6.078341">
        <ele>226.638027</ele>
        <time>2022-06-27T10:44:44.000Z</time>
      </trkpt>
      <trkpt lat="50.788603" lon="6.078177">
        <ele>227.519804</ele>
        <time>2022-06-27T10:44:49.000Z</time>
      </trkpt>
      <trkpt lat="50.788670" lon="6.078056">
        <ele>228.334336</ele>
        <time>2022-06-27T10:44:53.000Z</time>
      </trkpt>
      <trkpt lat="50.788721" lon="6.077902">
        <ele>229.214695</ele>
        <time>2022-06-27T10:44:57.000Z</time>
      </trkpt>
      <trkpt lat="50.788767" lon="6.077778">
        <ele>229.942741</ele>
        <time>2022-06-27T10:45:01.000Z</time>
      </trkpt>
      <trkpt lat="50.788806" lon="6.077634">
        <ele>230.736037</ele>
        <time>2022-06-27T10:45:05.000Z</time>
      </trkpt>
      <trkpt lat="50.788844" lon="6.077495">
        <ele>231.502909</ele>
        <time>2022-06-27T10:45:09.000Z</time>
      </trkpt>
      <trkpt lat="50.788887" lon="6.077357">
        <ele>232.281995</ele>
        <time>2022-06-27T10:45:13.999Z</time>
      </trkpt>
      <trkpt lat="50.788930" lon="6.077225">
        <ele>233.033948</ele>
        <time>2022-06-27T10:45:17.999Z</time>
      </trkpt>
      <trkpt lat="50.788979" lon="6.077070">
        <ele>233.911510</ele>
        <time>2022-06-27T10:45:21.999Z</time>
      </trkpt>
      <trkpt lat="50.789015" lon="6.076926">
        <ele>234.695651</ele>
        <time>2022-06-27T10:45:25.999Z</time>
      </trkpt>
      <trkpt lat="50.789055" lon="6.076784">
        <ele>235.482871</ele>
        <time>2022-06-27T10:45:29.999Z</time>
      </trkpt>
      <trkpt lat="50.789074" lon="6.076644">
        <ele>236.207960</ele>
        <time>2022-06-27T10:45:33.999Z</time>
      </trkpt>
      <trkpt lat="50.789105" lon="6.076484">
        <ele>237.055370</ele>
        <time>2022-06-27T10:45:37.999Z</time>
      </trkpt>
      <trkpt lat="50.789146" lon="6.076341">
        <ele>237.850492</ele>
        <time>2022-06-27T10:45:40.999Z</time>
      </trkpt>
      <trkpt lat="50.789171" lon="6.076182">
        <ele>238.680169</ele>
        <time>2022-06-27T10:45:45.999Z</time>
      </trkpt>
      <trkpt lat="50.789210" lon="6.076041">
        <ele>239.459518</ele>
        <time>2022-06-27T10:45:50.999Z</time>
      </trkpt>
      <trkpt lat="50.789289" lon="6.075898">
        <ele>240.088647</ele>
        <time>2022-06-27T10:46:04.000Z</time>
      </trkpt>
      <trkpt lat="50.789321" lon="6.075759">
        <ele>240.499838</ele>
        <time>2022-06-27T10:46:08.000Z</time>
      </trkpt>
      <trkpt lat="50.789377" lon="6.075618">
        <ele>240.962693</ele>
        <time>2022-06-27T10:46:11.000Z</time>
      </trkpt>
      <trkpt lat="50.789404" lon="6.075463">
        <ele>241.409592</ele>
        <time>2022-06-27T10:46:15.000Z</time>
      </trkpt>
      <trkpt lat="50.789432" lon="6.075298">
        <ele>241.884466</ele>
        <time>2022-06-27T10:46:19.000Z</time>
      </trkpt>
      <trkpt lat="50.789473" lon="6.075156">
        <ele>242.318392</ele>
        <time>2022-06-27T10:46:22.000Z</time>
      </trkpt>
      <trkpt lat="50.789497" lon="6.074992">
        <ele>242.786304</ele>
        <time>2022-06-27T10:46:26.000Z</time>
      </trkpt>
      <trkpt lat="50.789506" lon="6.074838">
        <ele>243.216190</ele>
        <time>2022-06-27T10:46:30.000Z</time>
      </trkpt>
      <trkpt lat="50.789531" lon="6.074701">
        <ele>243.612545</ele>
        <time>2022-06-27T10:46:33.000Z</time>
      </trkpt>
      <trkpt lat="50.789548" lon="6.074525">
        <ele>244.107435</ele>
        <time>2022-06-27T10:46:37.000Z</time>
      </trkpt>
      <trkpt lat="50.789549" lon="6.074354">
        <ele>244.582769</ele>
        <time>2022-06-27T10:46:41.000Z</time>
      </trkpt>
      <trkpt lat="50.789568" lon="6.074194">
        <ele>245.035286</ele>
        <time>2022-06-27T10:46:45.000Z</time>
      </trkpt>
      <trkpt lat="50.789603" lon="6.074033">
        <ele>245.508525</ele>
        <time>2022-06-27T10:46:52.000Z</time>
      </trkpt>
      <trkpt lat="50.789625" lon="6.073857">
        <ele>246.007208</ele>
        <time>2022-06-27T10:46:57.000Z</time>
      </trkpt>
      <trkpt lat="50.789688" lon="6.073669">
        <ele>246.598654</ele>
        <time>2022-06-27T10:47:00.000Z</time>
      </trkpt>
      <trkpt lat="50.789751" lon="6.073538">
        <ele>247.056171</ele>
        <time>2022-06-27T10:47:02.000Z</time>
      </trkpt>
      <trkpt lat="50.789780" lon="6.073397">
        <ele>247.468316</ele>
        <time>2022-06-27T10:47:05.000Z</time>
      </trkpt>
      <trkpt lat="50.789805" lon="6.073220">
        <ele>247.928350</ele>
        <time>2022-06-27T10:47:10.000Z</time>
      </trkpt>
      <trkpt lat="50.789776" lon="6.073052">
        <ele>248.356251</ele>
        <time>2022-06-27T10:47:15.000Z</time>
      </trkpt>
      <trkpt lat="50.789669" lon="6.073043">
        <ele>248.772720</ele>
        <time>2022-06-27T10:47:19.000Z</time>
      </trkpt>
      <trkpt lat="50.789587" lon="6.073124">
        <ele>249.148471</ele>
        <time>2022-06-27T10:47:22.999Z</time>
      </trkpt>
      <trkpt lat="50.789504" lon="6.073245">
        <ele>249.587176</ele>
        <time>2022-06-27T10:47:27.999Z</time>
      </trkpt>
      <trkpt lat="50.789437" lon="6.073387">
        <ele>250.022549</ele>
        <time>2022-06-27T10:47:32.999Z</time>
      </trkpt>
      <trkpt lat="50.789387" lon="6.073510">
        <ele>250.381862</ele>
        <time>2022-06-27T10:47:36.999Z</time>
      </trkpt>
      <trkpt lat="50.789342" lon="6.073666">
        <ele>250.803187</ele>
        <time>2022-06-27T10:47:41.999Z</time>
      </trkpt>
      <trkpt lat="50.789301" lon="6.073798">
        <ele>251.164558</ele>
        <time>2022-06-27T10:47:45.999Z</time>
      </trkpt>
      <trkpt lat="50.789265" lon="6.073936">
        <ele>251.531374</ele>
        <time>2022-06-27T10:47:49.999Z</time>
      </trkpt>
      <trkpt lat="50.789233" lon="6.074078">
        <ele>251.901787</ele>
        <time>2022-06-27T10:47:53.999Z</time>
      </trkpt>
      <trkpt lat="50.789197" lon="6.074219">
        <ele>252.275428</ele>
        <time>2022-06-27T10:47:57.999Z</time>
      </trkpt>
      <trkpt lat="50.789151" lon="6.074350">
        <ele>252.643630</ele>
        <time>2022-06-27T10:48:02.000Z</time>
      </trkpt>
      <trkpt lat="50.789100" lon="6.074490">
        <ele>253.040651</ele>
        <time>2022-06-27T10:48:06.000Z</time>
      </trkpt>
      <trkpt lat="50.789046" lon="6.074623">
        <ele>253.429041</ele>
        <time>2022-06-27T10:48:10.000Z</time>
      </trkpt>
      <trkpt lat="50.788991" lon="6.074757">
        <ele>253.821604</ele>
        <time>2022-06-27T10:48:14.000Z</time>
      </trkpt>
      <trkpt lat="50.788946" lon="6.074887">
        <ele>254.185779</ele>
        <time>2022-06-27T10:48:18.000Z</time>
      </trkpt>
      <trkpt lat="50.788887" lon="6.075037">
        <ele>254.610594</ele>
        <time>2022-06-27T10:48:22.000Z</time>
      </trkpt>
      <trkpt lat="50.788833" lon="6.075165">
        <ele>254.892671</ele>
        <time>2022-06-27T10:48:26.000Z</time>
      </trkpt>
      <trkpt lat="50.788800" lon="6.075322">
        <ele>255.195950</ele>
        <time>2022-06-27T10:48:30.000Z</time>
      </trkpt>
      <trkpt lat="50.788738" lon="6.075474">
        <ele>255.527536</ele>
        <time>2022-06-27T10:48:34.000Z</time>
      </trkpt>
      <trkpt lat="50.788689" lon="6.075606">
        <ele>255.808129</ele>
        <time>2022-06-27T10:48:38.000Z</time>
      </trkpt>
      <trkpt lat="50.788637" lon="6.075736">
        <ele>256.090121</ele>
        <time>2022-06-27T10:48:42.000Z</time>
      </trkpt>
      <trkpt lat="50.788589" lon="6.075892">
        <ele>256.408150</ele>
        <time>2022-06-27T10:48:46.000Z</time>
      </trkpt>
      <trkpt lat="50.788537" lon="6.076020">
        <ele>256.687050</ele>
        <time>2022-06-27T10:48:50.000Z</time>
      </trkpt>
      <trkpt lat="50.788486" lon="6.076168">
        <ele>256.996029</ele>
        <time>2022-06-27T10:48:54.000Z</time>
      </trkpt>
      <trkpt lat="50.788437" lon="6.076301">
        <ele>257.278205</ele>
        <time>2022-06-27T10:48:58.000Z</time>
      </trkpt>
      <trkpt lat="50.788395" lon="6.076443">
        <ele>257.565580</ele>
        <time>2022-06-27T10:49:02.000Z</time>
      </trkpt>
      <trkpt lat="50.788340" lon="6.076582">
        <ele>257.866169</ele>
        <time>2022-06-27T10:49:06.000Z</time>
      </trkpt>
      <trkpt lat="50.788281" lon="6.076735">
        <ele>258.194687</ele>
        <time>2022-06-27T10:49:10.000Z</time>
      </trkpt>
      <trkpt lat="50.788234" lon="6.076900">
        <ele>258.526428</ele>
        <time>2022-06-27T10:49:15.000Z</time>
      </trkpt>
      <trkpt lat="50.788178" lon="6.077040">
        <ele>258.830114</ele>
        <time>2022-06-27T10:49:19.000Z</time>
      </trkpt>
      <trkpt lat="50.788116" lon="6.077160">
        <ele>259.114199</ele>
        <time>2022-06-27T10:49:23.000Z</time>
      </trkpt>
      <trkpt lat="50.788068" lon="6.077301">
        <ele>259.407754</ele>
        <time>2022-06-27T10:49:27.000Z</time>
      </trkpt>
      <trkpt lat="50.788005" lon="6.077440">
        <ele>259.721268</ele>
        <time>2022-06-27T10:49:31.000Z</time>
      </trkpt>
      <trkpt lat="50.787947" lon="6.077586">
        <ele>259.684069</ele>
        <time>2022-06-27T10:49:35.000Z</time>
      </trkpt>
      <trkpt lat="50.787896" lon="6.077751">
        <ele>259.522454</ele>
        <time>2022-06-27T10:49:39.000Z</time>
      </trkpt>
      <trkpt lat="50.787846" lon="6.077895">
        <ele>259.377889</ele>
        <time>2022-06-27T10:49:42.999Z</time>
      </trkpt>
      <trkpt lat="50.787825" lon="6.078038">
        <ele>259.248707</ele>
        <time>2022-06-27T10:49:46.999Z</time>
      </trkpt>
      <trkpt lat="50.787801" lon="6.078185">
        <ele>259.115111</ele>
        <time>2022-06-27T10:49:51.000Z</time>
      </trkpt>
      <trkpt lat="50.787777" lon="6.078325">
        <ele>258.987470</ele>
        <time>2022-06-27T10:49:55.000Z</time>
      </trkpt>
      <trkpt lat="50.787755" lon="6.078482">
        <ele>258.845966</ele>
        <time>2022-06-27T10:49:59.000Z</time>
      </trkpt>
      <trkpt lat="50.787741" lon="6.078632">
        <ele>258.712544</ele>
        <time>2022-06-27T10:50:03.000Z</time>
      </trkpt>
      <trkpt lat="50.787722" lon="6.078810">
        <ele>258.553697</ele>
        <time>2022-06-27T10:50:08.000Z</time>
      </trkpt>
      <trkpt lat="50.787695" lon="6.078958">
        <ele>258.418151</ele>
        <time>2022-06-27T10:50:12.000Z</time>
      </trkpt>
      <trkpt lat="50.787668" lon="6.079109">
        <ele>258.280067</ele>
        <time>2022-06-27T10:50:17.000Z</time>
      </trkpt>
      <trkpt lat="50.787634" lon="6.079252">
        <ele>258.145630</ele>
        <time>2022-06-27T10:50:22.000Z</time>
      </trkpt>
      <trkpt lat="50.787572" lon="6.079355">
        <ele>258.020483</ele>
        <time>2022-06-27T10:50:26.000Z</time>
      </trkpt>
      <trkpt lat="50.787500" lon="6.079459">
        <ele>257.884770</ele>
        <time>2022-06-27T10:50:30.000Z</time>
      </trkpt>
      <trkpt lat="50.787426" lon="6.079574">
        <ele>257.740377</ele>
        <time>2022-06-27T10:50:34.000Z</time>
      </trkpt>
      <trkpt lat="50.787379" lon="6.079707">
        <ele>257.606301</ele>
        <time>2022-06-27T10:50:38.000Z</time>
      </trkpt>
      <trkpt lat="50.787301" lon="6.079803">
        <ele>257.468741</ele>
        <time>2022-06-27T10:50:42.000Z</time>
      </trkpt>
      <trkpt lat="50.787226" lon="6.079906">
        <ele>257.330493</ele>
        <time>2022-06-27T10:50:46.000Z</time>
      </trkpt>
      <trkpt lat="50.787164" lon="6.080029">
        <ele>257.289908</ele>
        <time>2022-06-27T10:50:52.000Z</time>
      </trkpt>
      <trkpt lat="50.787130" lon="6.080171">
        <ele>257.283121</ele>
        <time>2022-06-27T10:50:58.000Z</time>
      </trkpt>
      <trkpt lat="50.787044" lon="6.080272">
        <ele>257.275548</ele>
        <time>2022-06-27T10:51:03.000Z</time>
      </trkpt>
      <trkpt lat="50.786969" lon="6.080414">
        <ele>257.267276</ele>
        <time>2022-06-27T10:51:09.000Z</time>
      </trkpt>
      <trkpt lat="50.786897" lon="6.080501">
        <ele>257.260870</ele>
        <time>2022-06-27T10:51:13.000Z</time>
      </trkpt>
      <trkpt lat="50.786810" lon="6.080608">
        <ele>257.253078</ele>
        <time>2022-06-27T10:51:16.000Z</time>
      </trkpt>
      <trkpt lat="50.786738" lon="6.080731">
        <ele>257.245585</ele>
        <time>2022-06-27T10:51:19.000Z</time>
      </trkpt>
      <trkpt lat="50.786662" lon="6.080813">
        <ele>257.239080</ele>
        <time>2022-06-27T10:51:22.000Z</time>
      </trkpt>
      <trkpt lat="50.786578" lon="6.080924">
        <ele>257.231341</ele>
        <time>2022-06-27T10:51:26.000Z</time>
      </trkpt>
      <trkpt lat="50.786509" lon="6.081055">
        <ele>257.223719</ele>
        <time>2022-06-27T10:51:30.000Z</time>
      </trkpt>
      <trkpt lat="50.786434" lon="6.081177">
        <ele>257.216113</ele>
        <time>2022-06-27T10:51:34.000Z</time>
      </trkpt>
      <trkpt lat="50.786377" lon="6.081300">
        <ele>257.209296</ele>
        <time>2022-06-27T10:51:38.000Z</time>
      </trkpt>
      <trkpt lat="50.786318" lon="6.081438">
        <ele>257.201849</ele>
        <time>2022-06-27T10:51:41.999Z</time>
      </trkpt>
      <trkpt lat="50.786249" lon="6.081574">
        <ele>257.194054</ele>
        <time>2022-06-27T10:51:45.999Z</time>
      </trkpt>
      <trkpt lat="50.786153" lon="6.081704">
        <ele>257.185118</ele>
        <time>2022-06-27T10:51:48.999Z</time>
      </trkpt>
      <trkpt lat="50.786071" lon="6.081810">
        <ele>257.177631</ele>
        <time>2022-06-27T10:51:51.999Z</time>
      </trkpt>
      <trkpt lat="50.786001" lon="6.081908">
        <ele>257.171021</ele>
        <time>2022-06-27T10:51:54.999Z</time>
      </trkpt>
      <trkpt lat="50.785912" lon="6.082018">
        <ele>257.215874</ele>
        <time>2022-06-27T10:51:59.000Z</time>
      </trkpt>
      <trkpt lat="50.785812" lon="6.082049">
        <ele>257.285801</ele>
        <time>2022-06-27T10:52:03.000Z</time>
      </trkpt>
      <trkpt lat="50.785707" lon="6.082014">
        <ele>257.359437</ele>
        <time>2022-06-27T10:52:08.000Z</time>
      </trkpt>
      <trkpt lat="50.785655" lon="6.081863">
        <ele>257.434036</ele>
        <time>2022-06-27T10:52:13.000Z</time>
      </trkpt>
      <trkpt lat="50.785631" lon="6.081699">
        <ele>257.507068</ele>
        <time>2022-06-27T10:52:18.000Z</time>
      </trkpt>
      <trkpt lat="50.785637" lon="6.081539">
        <ele>257.576606</ele>
        <time>2022-06-27T10:52:22.000Z</time>
      </trkpt>
      <trkpt lat="50.785674" lon="6.081408">
        <ele>257.638853</ele>
        <time>2022-06-27T10:52:26.000Z</time>
      </trkpt>
      <trkpt lat="50.785714" lon="6.081250">
        <ele>257.712692</ele>
        <time>2022-06-27T10:52:32.000Z</time>
      </trkpt>
      <trkpt lat="50.785772" lon="6.081127">
        <ele>257.779264</ele>
        <time>2022-06-27T10:52:36.000Z</time>
      </trkpt>
      <trkpt lat="50.785840" lon="6.081007">
        <ele>257.849177</ele>
        <time>2022-06-27T10:52:40.000Z</time>
      </trkpt>
      <trkpt lat="50.785912" lon="6.080875">
        <ele>257.924812</ele>
        <time>2022-06-27T10:52:44.000Z</time>
      </trkpt>
      <trkpt lat="50.785986" lon="6.080751">
        <ele>257.998790</ele>
        <time>2022-06-27T10:52:48.000Z</time>
      </trkpt>
      <trkpt lat="50.786053" lon="6.080617">
        <ele>258.072908</ele>
        <time>2022-06-27T10:52:52.000Z</time>
      </trkpt>
      <trkpt lat="50.786116" lon="6.080504">
        <ele>258.138272</ele>
        <time>2022-06-27T10:52:56.000Z</time>
      </trkpt>
      <trkpt lat="50.786176" lon="6.080380">
        <ele>258.206016</ele>
        <time>2022-06-27T10:53:01.000Z</time>
      </trkpt>
      <trkpt lat="50.786228" lon="6.080239">
        <ele>258.276835</ele>
        <time>2022-06-27T10:53:05.000Z</time>
      </trkpt>
      <trkpt lat="50.786281" lon="6.080114">
        <ele>258.342132</ele>
        <time>2022-06-27T10:53:09.000Z</time>
      </trkpt>
      <trkpt lat="50.786330" lon="6.079943">
        <ele>258.359278</ele>
        <time>2022-06-27T10:53:14.000Z</time>
      </trkpt>
      <trkpt lat="50.786379" lon="6.079786">
        <ele>258.206362</ele>
        <time>2022-06-27T10:53:18.000Z</time>
      </trkpt>
      <trkpt lat="50.786428" lon="6.079633">
        <ele>258.056571</ele>
        <time>2022-06-27T10:53:22.000Z</time>
      </trkpt>
      <trkpt lat="50.786449" lon="6.079480">
        <ele>257.919834</ele>
        <time>2022-06-27T10:53:26.000Z</time>
      </trkpt>
      <trkpt lat="50.786468" lon="6.079325">
        <ele>257.781942</ele>
        <time>2022-06-27T10:53:30.000Z</time>
      </trkpt>
      <trkpt lat="50.786519" lon="6.079201">
        <ele>257.652745</ele>
        <time>2022-06-27T10:53:34.000Z</time>
      </trkpt>
      <trkpt lat="50.786581" lon="6.079070">
        <ele>257.509828</ele>
        <time>2022-06-27T10:53:38.000Z</time>
      </trkpt>
      <trkpt lat="50.786656" lon="6.078951">
        <ele>257.363077</ele>
        <time>2022-06-27T10:53:42.000Z</time>
      </trkpt>
      <trkpt lat="50.786722" lon="6.078845">
        <ele>257.233142</ele>
        <time>2022-06-27T10:53:46.000Z</time>
      </trkpt>
      <trkpt lat="50.786787" lon="6.078707">
        <ele>257.082847</ele>
        <time>2022-06-27T10:53:51.000Z</time>
      </trkpt>
      <trkpt lat="50.786860" lon="6.078562">
        <ele>256.920963</ele>
        <time>2022-06-27T10:53:55.999Z</time>
      </trkpt>
      <trkpt lat="50.786917" lon="6.078428">
        <ele>256.779909</ele>
        <time>2022-06-27T10:53:58.999Z</time>
      </trkpt>
      <trkpt lat="50.786969" lon="6.078293">
        <ele>256.641847</ele>
        <time>2022-06-27T10:54:01.999Z</time>
      </trkpt>
      <trkpt lat="50.787022" lon="6.078177">
        <ele>256.516851</ele>
        <time>2022-06-27T10:54:04.999Z</time>
      </trkpt>
      <trkpt lat="50.787079" lon="6.078027">
        <ele>256.364005</ele>
        <time>2022-06-27T10:54:08.999Z</time>
      </trkpt>
      <trkpt lat="50.787134" lon="6.077889">
        <ele>256.221533</ele>
        <time>2022-06-27T10:54:12.999Z</time>
      </trkpt>
      <trkpt lat="50.787209" lon="6.077753">
        <ele>256.063919</ele>
        <time>2022-06-27T10:54:16.999Z</time>
      </trkpt>
      <trkpt lat="50.787291" lon="6.077633">
        <ele>255.923148</ele>
        <time>2022-06-27T10:54:20.999Z</time>
      </trkpt>
      <trkpt lat="50.787365" lon="6.077496">
        <ele>256.034496</ele>
        <time>2022-06-27T10:54:24.999Z</time>
      </trkpt>
      <trkpt lat="50.787427" lon="6.077392">
        <ele>256.122827</ele>
        <time>2022-06-27T10:54:27.999Z</time>
      </trkpt>
      <trkpt lat="50.787504" lon="6.077278">
        <ele>256.225913</ele>
        <time>2022-06-27T10:54:31.999Z</time>
      </trkpt>
      <trkpt lat="50.787567" lon="6.077154">
        <ele>256.324214</ele>
        <time>2022-06-27T10:54:35.999Z</time>
      </trkpt>
      <trkpt lat="50.787640" lon="6.077028">
        <ele>256.429822</ele>
        <time>2022-06-27T10:54:39.999Z</time>
      </trkpt>
      <trkpt lat="50.787704" lon="6.076915">
        <ele>256.523571</ele>
        <time>2022-06-27T10:54:43.999Z</time>
      </trkpt>
      <trkpt lat="50.787801" lon="6.076834">
        <ele>256.630782</ele>
        <time>2022-06-27T10:54:47.999Z</time>
      </trkpt>
      <trkpt lat="50.787911" lon="6.076808">
        <ele>256.739493</ele>
        <time>2022-06-27T10:54:51.999Z</time>
      </trkpt>
      <trkpt lat="50.788024" lon="6.076839">
        <ele>256.851592</ele>
        <time>2022-06-27T10:54:56.000Z</time>
      </trkpt>
      <trkpt lat="50.788129" lon="6.076832">
        <ele>256.954313</ele>
        <time>2022-06-27T10:55:00.000Z</time>
      </trkpt>
      <trkpt lat="50.788233" lon="6.076840">
        <ele>257.056086</ele>
        <time>2022-06-27T10:55:04.000Z</time>
      </trkpt>
      <trkpt lat="50.788310" lon="6.076743">
        <ele>257.152299</ele>
        <time>2022-06-27T10:55:08.000Z</time>
      </trkpt>
      <trkpt lat="50.788364" lon="6.076599">
        <ele>257.255756</ele>
        <time>2022-06-27T10:55:12.000Z</time>
      </trkpt>
      <trkpt lat="50.788418" lon="6.076446">
        <ele>257.364033</ele>
        <time>2022-06-27T10:55:16.000Z</time>
      </trkpt>
      <trkpt lat="50.788484" lon="6.076315">
        <ele>257.467542</ele>
        <time>2022-06-27T10:55:20.000Z</time>
      </trkpt>
      <trkpt lat="50.788530" lon="6.076157">
        <ele>257.575028</ele>
        <time>2022-06-27T10:55:24.000Z</time>
      </trkpt>
      <trkpt lat="50.788589" lon="6.076018">
        <ele>257.663444</ele>
        <time>2022-06-27T10:55:28.000Z</time>
      </trkpt>
      <trkpt lat="50.788645" lon="6.075873">
        <ele>257.224257</ele>
        <time>2022-06-27T10:55:32.000Z</time>
      </trkpt>
      <trkpt lat="50.788702" lon="6.075720">
        <ele>256.765235</ele>
        <time>2022-06-27T10:55:36.000Z</time>
      </trkpt>
      <trkpt lat="50.788765" lon="6.075593">
        <ele>256.347981</ele>
        <time>2022-06-27T10:55:40.000Z</time>
      </trkpt>
      <trkpt lat="50.788785" lon="6.075453">
        <ele>255.976998</ele>
        <time>2022-06-27T10:55:43.000Z</time>
      </trkpt>
      <trkpt lat="50.788699" lon="6.075408">
        <ele>255.606644</ele>
        <time>2022-06-27T10:55:47.000Z</time>
      </trkpt>
      <trkpt lat="50.788609" lon="6.075497">
        <ele>255.172685</ele>
        <time>2022-06-27T10:55:51.000Z</time>
      </trkpt>
      <trkpt lat="50.788518" lon="6.075570">
        <ele>254.755516</ele>
        <time>2022-06-27T10:55:55.000Z</time>
      </trkpt>
      <trkpt lat="50.788439" lon="6.075652">
        <ele>254.369190</ele>
        <time>2022-06-27T10:55:59.000Z</time>
      </trkpt>
      <trkpt lat="50.788363" lon="6.075734">
        <ele>253.993058</ele>
        <time>2022-06-27T10:56:02.999Z</time>
      </trkpt>
      <trkpt lat="50.788285" lon="6.075842">
        <ele>253.569233</ele>
        <time>2022-06-27T10:56:06.999Z</time>
      </trkpt>
      <trkpt lat="50.788204" lon="6.075929">
        <ele>253.168929</ele>
        <time>2022-06-27T10:56:10.999Z</time>
      </trkpt>
      <trkpt lat="50.788113" lon="6.076028">
        <ele>252.717368</ele>
        <time>2022-06-27T10:56:14.999Z</time>
      </trkpt>
      <trkpt lat="50.788022" lon="6.076111">
        <ele>252.287889</ele>
        <time>2022-06-27T10:56:18.999Z</time>
      </trkpt>
      <trkpt lat="50.787932" lon="6.076199">
        <ele>251.855293</ele>
        <time>2022-06-27T10:56:22.999Z</time>
      </trkpt>
      <trkpt lat="50.787833" lon="6.076282">
        <ele>251.397186</ele>
        <time>2022-06-27T10:56:26.999Z</time>
      </trkpt>
      <trkpt lat="50.787743" lon="6.076361">
        <ele>250.976356</ele>
        <time>2022-06-27T10:56:30.999Z</time>
      </trkpt>
      <trkpt lat="50.787639" lon="6.076432">
        <ele>250.513233</ele>
        <time>2022-06-27T10:56:34.999Z</time>
      </trkpt>
      <trkpt lat="50.787552" lon="6.076525">
        <ele>249.961982</ele>
        <time>2022-06-27T10:56:38.999Z</time>
      </trkpt>
      <trkpt lat="50.787471" lon="6.076616">
        <ele>249.347492</ele>
        <time>2022-06-27T10:56:42.999Z</time>
      </trkpt>
      <trkpt lat="50.787388" lon="6.076711">
        <ele>248.713835</ele>
        <time>2022-06-27T10:56:46.999Z</time>
      </trkpt>
      <trkpt lat="50.787288" lon="6.076794">
        <ele>248.015356</ele>
        <time>2022-06-27T10:56:50.999Z</time>
      </trkpt>
      <trkpt lat="50.787201" lon="6.076890">
        <ele>247.359264</ele>
        <time>2022-06-27T10:56:54.999Z</time>
      </trkpt>
      <trkpt lat="50.787110" lon="6.076978">
        <ele>246.699577</ele>
        <time>2022-06-27T10:56:58.999Z</time>
      </trkpt>
      <trkpt lat="50.787027" lon="6.077075">
        <ele>246.061302</ele>
        <time>2022-06-27T10:57:02.999Z</time>
      </trkpt>
      <trkpt lat="50.786931" lon="6.077159">
        <ele>245.382747</ele>
        <time>2022-06-27T10:57:06.999Z</time>
      </trkpt>
      <trkpt lat="50.786873" lon="6.077274">
        <ele>244.807513</ele>
        <time>2022-06-27T10:57:11.000Z</time>
      </trkpt>
      <trkpt lat="50.786793" lon="6.077379">
        <ele>244.164553</ele>
        <time>2022-06-27T10:57:15.000Z</time>
      </trkpt>
      <trkpt lat="50.786731" lon="6.077498">
        <ele>243.561586</ele>
        <time>2022-06-27T10:57:19.000Z</time>
      </trkpt>
      <trkpt lat="50.786669" lon="6.077624">
        <ele>242.937253</ele>
        <time>2022-06-27T10:57:23.000Z</time>
      </trkpt>
      <trkpt lat="50.786587" lon="6.077741">
        <ele>242.254225</ele>
        <time>2022-06-27T10:57:27.000Z</time>
      </trkpt>
      <trkpt lat="50.786515" lon="6.077848">
        <ele>241.643189</ele>
        <time>2022-06-27T10:57:31.000Z</time>
      </trkpt>
      <trkpt lat="50.786465" lon="6.077982">
        <ele>241.034762</ele>
        <time>2022-06-27T10:57:35.000Z</time>
      </trkpt>
      <trkpt lat="50.786403" lon="6.078138">
        <ele>240.314243</ele>
        <time>2022-06-27T10:57:39.000Z</time>
      </trkpt>
      <trkpt lat="50.786342" lon="6.078252">
        <ele>239.730244</ele>
        <time>2022-06-27T10:57:42.000Z</time>
      </trkpt>
      <trkpt lat="50.786277" lon="6.078398">
        <ele>239.170896</ele>
        <time>2022-06-27T10:57:46.000Z</time>
      </trkpt>
      <trkpt lat="50.786213" lon="6.078518">
        <ele>239.073508</ele>
        <time>2022-06-27T10:57:50.000Z</time>
      </trkpt>
      <trkpt lat="50.786159" lon="6.078661">
        <ele>238.970183</ele>
        <time>2022-06-27T10:57:54.000Z</time>
      </trkpt>
      <trkpt lat="50.786101" lon="6.078801">
        <ele>238.866354</ele>
        <time>2022-06-27T10:57:58.000Z</time>
      </trkpt>
      <trkpt lat="50.786067" lon="6.078938">
        <ele>238.775056</ele>
        <time>2022-06-27T10:58:02.000Z</time>
      </trkpt>
      <trkpt lat="50.786015" lon="6.079086">
        <ele>238.670023</ele>
        <time>2022-06-27T10:58:05.999Z</time>
      </trkpt>
      <trkpt lat="50.785959" lon="6.079200">
        <ele>238.580469</ele>
        <time>2022-06-27T10:58:08.999Z</time>
      </trkpt>
      <trkpt lat="50.785905" lon="6.079344">
        <ele>238.476611</ele>
        <time>2022-06-27T10:58:12.999Z</time>
      </trkpt>
      <trkpt lat="50.785859" lon="6.079494">
        <ele>238.373193</ele>
        <time>2022-06-27T10:58:16.999Z</time>
      </trkpt>
      <trkpt lat="50.785810" lon="6.079642">
        <ele>238.269558</ele>
        <time>2022-06-27T10:58:20.999Z</time>
      </trkpt>
      <trkpt lat="50.785757" lon="6.079786">
        <ele>238.166197</ele>
        <time>2022-06-27T10:58:24.999Z</time>
      </trkpt>
      <trkpt lat="50.785707" lon="6.079924">
        <ele>238.067530</ele>
        <time>2022-06-27T10:58:28.999Z</time>
      </trkpt>
      <trkpt lat="50.785638" lon="6.080077">
        <ele>237.950948</ele>
        <time>2022-06-27T10:58:32.999Z</time>
      </trkpt>
      <trkpt lat="50.785571" lon="6.080210">
        <ele>237.845456</ele>
        <time>2022-06-27T10:58:36.999Z</time>
      </trkpt>
      <trkpt lat="50.785513" lon="6.080346">
        <ele>237.743691</ele>
        <time>2022-06-27T10:58:40.999Z</time>
      </trkpt>
      <trkpt lat="50.785439" lon="6.080489">
        <ele>237.629058</ele>
        <time>2022-06-27T10:58:44.999Z</time>
      </trkpt>
      <trkpt lat="50.785385" lon="6.080645">
        <ele>237.518731</ele>
        <time>2022-06-27T10:58:48.999Z</time>
      </trkpt>
      <trkpt lat="50.785347" lon="6.080776">
        <ele>237.421623</ele>
        <time>2022-06-27T10:58:51.999Z</time>
      </trkpt>
      <trkpt lat="50.785305" lon="6.080952">
        <ele>237.001639</ele>
        <time>2022-06-27T10:58:56.999Z</time>
      </trkpt>
      <trkpt lat="50.785275" lon="6.081089">
        <ele>236.677956</ele>
        <time>2022-06-27T10:59:00.999Z</time>
      </trkpt>
      <trkpt lat="50.785237" lon="6.081249">
        <ele>236.296378</ele>
        <time>2022-06-27T10:59:04.999Z</time>
      </trkpt>
      <trkpt lat="50.785197" lon="6.081418">
        <ele>235.893506</ele>
        <time>2022-06-27T10:59:08.999Z</time>
      </trkpt>
      <trkpt lat="50.785109" lon="6.081548">
        <ele>235.468304</ele>
        <time>2022-06-27T10:59:12.999Z</time>
      </trkpt>
      <trkpt lat="50.785060" lon="6.081717">
        <ele>235.053220</ele>
        <time>2022-06-27T10:59:16.999Z</time>
      </trkpt>
      <trkpt lat="50.785034" lon="6.081862">
        <ele>234.716733</ele>
        <time>2022-06-27T10:59:20.999Z</time>
      </trkpt>
      <trkpt lat="50.784998" lon="6.082001">
        <ele>234.381381</ele>
        <time>2022-06-27T10:59:25.000Z</time>
      </trkpt>
      <trkpt lat="50.784973" lon="6.082144">
        <ele>234.050146</ele>
        <time>2022-06-27T10:59:29.000Z</time>
      </trkpt>
      <trkpt lat="50.784956" lon="6.082293">
        <ele>233.712123</ele>
        <time>2022-06-27T10:59:33.000Z</time>
      </trkpt>
      <trkpt lat="50.784850" lon="6.082284">
        <ele>233.337275</ele>
        <time>2022-06-27T10:59:38.000Z</time>
      </trkpt>
      <trkpt lat="50.784858" lon="6.082119">
        <ele>232.967822</ele>
        <time>2022-06-27T10:59:43.000Z</time>
      </trkpt>
      <trkpt lat="50.784873" lon="6.081967">
        <ele>232.624365</ele>
        <time>2022-06-27T10:59:49.000Z</time>
      </trkpt>
      <trkpt lat="50.784904" lon="6.081804">
        <ele>232.244351</ele>
        <time>2022-06-27T10:59:53.000Z</time>
      </trkpt>
      <trkpt lat="50.784941" lon="6.081666">
        <ele>231.909699</ele>
        <time>2022-06-27T10:59:57.000Z</time>
      </trkpt>
      <trkpt lat="50.784964" lon="6.081519">
        <ele>231.571614</ele>
        <time>2022-06-27T11:00:01.000Z</time>
      </trkpt>
      <trkpt lat="50.784961" lon="6.081367">
        <ele>231.232101</ele>
        <time>2022-06-27T11:00:05.000Z</time>
      </trkpt>
      <trkpt lat="50.784967" lon="6.081212">
        <ele>231.017804</ele>
        <time>2022-06-27T11:00:09.000Z</time>
      </trkpt>
      <trkpt lat="50.785028" lon="6.081076">
        <ele>230.897664</ele>
        <time>2022-06-27T11:00:12.999Z</time>
      </trkpt>
      <trkpt lat="50.785055" lon="6.080922">
        <ele>230.782522</ele>
        <time>2022-06-27T11:00:16.999Z</time>
      </trkpt>
      <trkpt lat="50.785110" lon="6.080794">
        <ele>230.671017</ele>
        <time>2022-06-27T11:00:21.000Z</time>
      </trkpt>
      <trkpt lat="50.785166" lon="6.080661">
        <ele>230.555887</ele>
        <time>2022-06-27T11:00:25.000Z</time>
      </trkpt>
      <trkpt lat="50.785202" lon="6.080489">
        <ele>230.425349</ele>
        <time>2022-06-27T11:00:29.000Z</time>
      </trkpt>
      <trkpt lat="50.785227" lon="6.080309">
        <ele>230.292570</ele>
        <time>2022-06-27T11:00:33.000Z</time>
      </trkpt>
      <trkpt lat="50.785257" lon="6.080154">
        <ele>230.175779</ele>
        <time>2022-06-27T11:00:37.000Z</time>
      </trkpt>
      <trkpt lat="50.785302" lon="6.080009">
        <ele>230.059401</ele>
        <time>2022-06-27T11:00:41.000Z</time>
      </trkpt>
      <trkpt lat="50.785370" lon="6.079903">
        <ele>229.950600</ele>
        <time>2022-06-27T11:00:45.000Z</time>
      </trkpt>
      <trkpt lat="50.785442" lon="6.079789">
        <ele>229.834504</ele>
        <time>2022-06-27T11:00:49.000Z</time>
      </trkpt>
      <trkpt lat="50.785488" lon="6.079654">
        <ele>229.724012</ele>
        <time>2022-06-27T11:00:53.000Z</time>
      </trkpt>
      <trkpt lat="50.785539" lon="6.079518">
        <ele>229.610087</ele>
        <time>2022-06-27T11:00:57.000Z</time>
      </trkpt>
      <trkpt lat="50.785582" lon="6.079358">
        <ele>229.484828</ele>
        <time>2022-06-27T11:01:01.000Z</time>
      </trkpt>
      <trkpt lat="50.785623" lon="6.079207">
        <ele>229.366427</ele>
        <time>2022-06-27T11:01:05.000Z</time>
      </trkpt>
      <trkpt lat="50.785676" lon="6.079058">
        <ele>229.243251</ele>
        <time>2022-06-27T11:01:09.000Z</time>
      </trkpt>
      <trkpt lat="50.785712" lon="6.078906">
        <ele>229.126307</ele>
        <time>2022-06-27T11:01:13.000Z</time>
      </trkpt>
      <trkpt lat="50.785751" lon="6.078752">
        <ele>229.016984</ele>
        <time>2022-06-27T11:01:17.000Z</time>
      </trkpt>
      <trkpt lat="50.785800" lon="6.078601">
        <ele>228.945851</ele>
        <time>2022-06-27T11:01:22.000Z</time>
      </trkpt>
      <trkpt lat="50.785863" lon="6.078469">
        <ele>228.876537</ele>
        <time>2022-06-27T11:01:26.000Z</time>
      </trkpt>
      <trkpt lat="50.785916" lon="6.078320">
        <ele>228.804887</ele>
        <time>2022-06-27T11:01:30.000Z</time>
      </trkpt>
      <trkpt lat="50.785980" lon="6.078190">
        <ele>228.735834</ele>
        <time>2022-06-27T11:01:35.000Z</time>
      </trkpt>
      <trkpt lat="50.786025" lon="6.078066">
        <ele>228.675914</ele>
        <time>2022-06-27T11:01:39.000Z</time>
      </trkpt>
      <trkpt lat="50.786092" lon="6.077963">
        <ele>228.613978</ele>
        <time>2022-06-27T11:01:43.000Z</time>
      </trkpt>
      <trkpt lat="50.786168" lon="6.077870">
        <ele>228.550282</ele>
        <time>2022-06-27T11:01:47.000Z</time>
      </trkpt>
      <trkpt lat="50.786238" lon="6.077751">
        <ele>228.482161</ele>
        <time>2022-06-27T11:01:51.000Z</time>
      </trkpt>
      <trkpt lat="50.786304" lon="6.077635">
        <ele>228.416758</ele>
        <time>2022-06-27T11:01:55.000Z</time>
      </trkpt>
      <trkpt lat="50.786315" lon="6.077480">
        <ele>228.351391</ele>
        <time>2022-06-27T11:01:59.000Z</time>
      </trkpt>
      <trkpt lat="50.786386" lon="6.077355">
        <ele>228.280967</ele>
        <time>2022-06-27T11:02:03.000Z</time>
      </trkpt>
      <trkpt lat="50.786456" lon="6.077255">
        <ele>228.218441</ele>
        <time>2022-06-27T11:02:07.000Z</time>
      </trkpt>
      <trkpt lat="50.786520" lon="6.077148">
        <ele>228.156709</ele>
        <time>2022-06-27T11:02:10.999Z</time>
      </trkpt>
      <trkpt lat="50.786589" lon="6.077041">
        <ele>228.092655</ele>
        <time>2022-06-27T11:02:14.999Z</time>
      </trkpt>
      <trkpt lat="50.786653" lon="6.076928">
        <ele>228.029073</ele>
        <time>2022-06-27T11:02:18.999Z</time>
      </trkpt>
      <trkpt lat="50.786719" lon="6.076814">
        <ele>227.964291</ele>
        <time>2022-06-27T11:02:22.999Z</time>
      </trkpt>
      <trkpt lat="50.786787" lon="6.076703">
        <ele>227.899515</ele>
        <time>2022-06-27T11:02:26.999Z</time>
      </trkpt>
      <trkpt lat="50.786861" lon="6.076597">
        <ele>227.832334</ele>
        <time>2022-06-27T11:02:30.999Z</time>
      </trkpt>
      <trkpt lat="50.786940" lon="6.076491">
        <ele>227.751210</ele>
        <time>2022-06-27T11:02:34.999Z</time>
      </trkpt>
      <trkpt lat="50.787003" lon="6.076381">
        <ele>227.677727</ele>
        <time>2022-06-27T11:02:39.000Z</time>
      </trkpt>
      <trkpt lat="50.787033" lon="6.076216">
        <ele>227.592728</ele>
        <time>2022-06-27T11:02:43.000Z</time>
      </trkpt>
      <trkpt lat="50.787087" lon="6.076085">
        <ele>227.515305</ele>
        <time>2022-06-27T11:02:47.000Z</time>
      </trkpt>
      <trkpt lat="50.787164" lon="6.075952">
        <ele>227.426022</ele>
        <time>2022-06-27T11:02:51.000Z</time>
      </trkpt>
      <trkpt lat="50.787224" lon="6.075806">
        <ele>227.339812</ele>
        <time>2022-06-27T11:02:55.000Z</time>
      </trkpt>
      <trkpt lat="50.787273" lon="6.075673">
        <ele>227.263602</ele>
        <time>2022-06-27T11:02:59.000Z</time>
      </trkpt>
      <trkpt lat="50.787334" lon="6.075567">
        <ele>227.192639</ele>
        <time>2022-06-27T11:03:02.000Z</time>
      </trkpt>
      <trkpt lat="50.787410" lon="6.075439">
        <ele>227.105703</ele>
        <time>2022-06-27T11:03:06.000Z</time>
      </trkpt>
      <trkpt lat="50.787491" lon="6.075327">
        <ele>227.021454</ele>
        <time>2022-06-27T11:03:10.000Z</time>
      </trkpt>
      <trkpt lat="50.787590" lon="6.075234">
        <ele>226.931286</ele>
        <time>2022-06-27T11:03:14.000Z</time>
      </trkpt>
      <trkpt lat="50.787680" lon="6.075135">
        <ele>226.845441</ele>
        <time>2022-06-27T11:03:18.000Z</time>
      </trkpt>
      <trkpt lat="50.787757" lon="6.075026">
        <ele>226.764522</ele>
        <time>2022-06-27T11:03:22.000Z</time>
      </trkpt>
      <trkpt lat="50.787840" lon="6.074901">
        <ele>226.674777</ele>
        <time>2022-06-27T11:03:26.000Z</time>
      </trkpt>
      <trkpt lat="50.787916" lon="6.074769">
        <ele>226.586389</ele>
        <time>2022-06-27T11:03:30.000Z</time>
      </trkpt>
      <trkpt lat="50.787976" lon="6.074649">
        <ele>226.510646</ele>
        <time>2022-06-27T11:03:33.000Z</time>
      </trkpt>
      <trkpt lat="50.788020" lon="6.074481">
        <ele>226.375476</ele>
        <time>2022-06-27T11:03:37.000Z</time>
      </trkpt>
      <trkpt lat="50.788086" lon="6.074330">
        <ele>225.862879</ele>
        <time>2022-06-27T11:03:41.000Z</time>
      </trkpt>
      <trkpt lat="50.788144" lon="6.074207">
        <ele>225.434410</ele>
        <time>2022-06-27T11:03:44.000Z</time>
      </trkpt>
      <trkpt lat="50.788220" lon="6.074066">
        <ele>224.917023</ele>
        <time>2022-06-27T11:03:48.000Z</time>
      </trkpt>
      <trkpt lat="50.788302" lon="6.073950">
        <ele>224.431133</ele>
        <time>2022-06-27T11:03:52.000Z</time>
      </trkpt>
      <trkpt lat="50.788372" lon="6.073852">
        <ele>224.018250</ele>
        <time>2022-06-27T11:03:56.000Z</time>
      </trkpt>
      <trkpt lat="50.788431" lon="6.073741">
        <ele>223.613314</ele>
        <time>2022-06-27T11:04:00.000Z</time>
      </trkpt>
      <trkpt lat="50.788495" lon="6.073611">
        <ele>223.153236</ele>
        <time>2022-06-27T11:04:04.000Z</time>
      </trkpt>
      <trkpt lat="50.788550" lon="6.073485">
        <ele>222.725692</ele>
        <time>2022-06-27T11:04:07.999Z</time>
      </trkpt>
      <trkpt lat="50.788602" lon="6.073361">
        <ele>222.310200</ele>
        <time>2022-06-27T11:04:11.999Z</time>
      </trkpt>
      <trkpt lat="50.788674" lon="6.073236">
        <ele>221.838019</ele>
        <time>2022-06-27T11:04:15.999Z</time>
      </trkpt>
      <trkpt lat="50.788741" lon="6.073108">
        <ele>221.373999</ele>
        <time>2022-06-27T11:04:19.999Z</time>
      </trkpt>
      <trkpt lat="50.788826" lon="6.072993">
        <ele>220.879976</ele>
        <time>2022-06-27T11:04:23.999Z</time>
      </trkpt>
      <trkpt lat="50.788898" lon="6.072880">
        <ele>220.431994</ele>
        <time>2022-06-27T11:04:27.999Z</time>
      </trkpt>
      <trkpt lat="50.788977" lon="6.072756">
        <ele>219.940433</ele>
        <time>2022-06-27T11:04:31.999Z</time>
      </trkpt>
      <trkpt lat="50.789017" lon="6.072600">
        <ele>219.470379</ele>
        <time>2022-06-27T11:04:35.999Z</time>
      </trkpt>
      <trkpt lat="50.788987" lon="6.072457">
        <ele>219.049677</ele>
        <time>2022-06-27T11:04:39.999Z</time>
      </trkpt>
      <trkpt lat="50.788972" lon="6.072304">
        <ele>218.617359</ele>
        <time>2022-06-27T11:04:43.999Z</time>
      </trkpt>
      <trkpt lat="50.788948" lon="6.072123">
        <ele>218.486021</ele>
        <time>2022-06-27T11:04:47.999Z</time>
      </trkpt>
      <trkpt lat="50.788996" lon="6.071940">
        <ele>218.486021</ele>
        <time>2022-06-27T11:04:51.999Z</time>
      </trkpt>
      <trkpt lat="50.789064" lon="6.071843">
        <ele>218.486021</ele>
        <time>2022-06-27T11:04:54.999Z</time>
      </trkpt>
      <trkpt lat="50.789163" lon="6.071746">
        <ele>218.486021</ele>
        <time>2022-06-27T11:04:59.000Z</time>
      </trkpt>
      <trkpt lat="50.789244" lon="6.071663">
        <ele>218.486021</ele>
        <time>2022-06-27T11:05:03.000Z</time>
      </trkpt>
      <trkpt lat="50.789338" lon="6.071573">
        <ele>218.486021</ele>
        <time>2022-06-27T11:05:07.000Z</time>
      </trkpt>
      <trkpt lat="50.789283" lon="6.071452">
        <ele>218.486021</ele>
        <time>2022-06-27T11:05:13.000Z</time>
      </trkpt>
      <trkpt lat="50.789178" lon="6.071487">
        <ele>218.486021</ele>
        <time>2022-06-27T11:05:20.000Z</time>
      </trkpt>
      <trkpt lat="50.789084" lon="6.071525">
        <ele>218.486021</ele>
        <time>2022-06-27T11:05:25.000Z</time>
      </trkpt>
      <trkpt lat="50.788982" lon="6.071551">
        <ele>218.486021</ele>
        <time>2022-06-27T11:05:29.000Z</time>
      </trkpt>
      <trkpt lat="50.788892" lon="6.071607">
        <ele>218.486021</ele>
        <time>2022-06-27T11:05:33.000Z</time>
      </trkpt>
      <trkpt lat="50.788781" lon="6.071659">
        <ele>218.486021</ele>
        <time>2022-06-27T11:05:37.000Z</time>
      </trkpt>
      <trkpt lat="50.788668" lon="6.071657">
        <ele>218.486021</ele>
        <time>2022-06-27T11:05:41.000Z</time>
      </trkpt>
      <trkpt lat="50.788579" lon="6.071725">
        <ele>218.486021</ele>
        <time>2022-06-27T11:05:44.000Z</time>
      </trkpt>
      <trkpt lat="50.788482" lon="6.071806">
        <ele>218.486021</ele>
        <time>2022-06-27T11:05:48.000Z</time>
      </trkpt>
      <trkpt lat="50.788376" lon="6.071846">
        <ele>218.486021</ele>
        <time>2022-06-27T11:05:51.000Z</time>
      </trkpt>
      <trkpt lat="50.788294" lon="6.071915">
        <ele>218.486021</ele>
        <time>2022-06-27T11:05:54.000Z</time>
      </trkpt>
      <trkpt lat="50.788204" lon="6.071976">
        <ele>218.486021</ele>
        <time>2022-06-27T11:05:58.000Z</time>
      </trkpt>
      <trkpt lat="50.788122" lon="6.072066">
        <ele>218.486021</ele>
        <time>2022-06-27T11:06:04.000Z</time>
      </trkpt>
      <trkpt lat="50.788036" lon="6.072142">
        <ele>218.486021</ele>
        <time>2022-06-27T11:06:10.000Z</time>
      </trkpt>
    </trkseg>
  </trk>
</gpx>