<?xml version="1.0" encoding="UTF-8"?>
<gpx xmlns="http://www.topografix.com/GPX/1/1" xmlns:gpsies="https://www.gpsies.com/GPX/1/0" creator="GPSies https://www.gpsies.com - Bonn Marathon HM" version="1.1" xmlns:xsi="http://www.w3.org/2001/XMLSchema-instance" xsi:schemaLocation="http://www.topografix.com/GPX/1/1 http://www.topografix.com/GPX/1/1/gpx.xsd https://www.gpsies.com/GPX/1/0 https://www.gpsies.com/gpsies.xsd">
  <metadata>
    <name>Bonn Marathon HM</name>
    <author>
      <name>okojoe</name>
      <link href="https://www.gpsies.com/mapUser.do?username=okojoe">
        <text>okojoe on GPSies.com</text>
        <type>GPSiesUserOnWeb</type>
      </link>
    </author>
    <link href="https://www.gpsies.com/map.do?fileId=duaodeuygiajkkgg">
      <text>Bonn Marathon HM on GPSies.com</text>
      <type>trackOnWeb</type>
    </link>
    <time>2018-07-02T15:09:18Z</time>
    <extensions>
      <gpsies:property>round trip</gpsies:property>
      <gpsies:trackLengthMeter>21213.11086063546</gpsies:trackLengthMeter>
      <gpsies:totalAscentMeter>138.0</gpsies:totalAscentMeter>
      <gpsies:totalDescentMeter>132.0</gpsies:totalDescentMeter>
      <gpsies:minHeightMeter>52.0</gpsies:minHeightMeter>
      <gpsies:maxHeightMeter>71.0</gpsies:maxHeightMeter>
    </extensions>
  </metadata>
  <trk>
    <name>Bonn Marathon HM on GPSies.com</name>
    <link href="https://www.gpsies.com/map.do?fileId=duaodeuygiajkkgg">
      <type>trackOnWeb</type>
    </link>
    <link href="https://www.gpsies.com/charts/du/map/duaodeuygiajkkgg_map.png">
      <type>elevationChartUrlMap</type>
    </link>
    <link href="https://www.gpsies.com/charts/du/mapThumb/duaodeuygiajkkgg_mapThumb.png">
      <type>elevationChartUrlMapThumb</type>
    </link>
    <link href="https://www.gpsies.com/charts/du/tab/duaodeuygiajkkgg_tab.png">
      <type>elevationChartUrlTab</type>
    </link>
    <trkseg>
      <trkpt lat="50.73565250" lon="7.105124470">
        <ele>64.000000</ele>
        <time>2010-01-01T00:00:00Z</time>
      </trkpt>
      <trkpt lat="50.73608710" lon="7.104877710">
        <ele>64.000000</ele>
        <time>2010-01-01T00:00:18Z</time>
      </trkpt>
      <trkpt lat="50.73707840" lon="7.104115960">
        <ele>66.000000</ele>
        <time>2010-01-01T00:01:02Z</time>
      </trkpt>
      <trkpt lat="50.73728890" lon="7.104148140">
        <ele>67.000000</ele>
        <time>2010-01-01T00:01:11Z</time>
      </trkpt>
      <trkpt lat="50.73736360" lon="7.104319810">
        <ele>66.000000</ele>
        <time>2010-01-01T00:01:16Z</time>
      </trkpt>
      <trkpt lat="50.73758770" lon="7.106165170">
        <ele>60.000000</ele>
        <time>2010-01-01T00:02:03Z</time>
      </trkpt>
      <trkpt lat="50.73840250" lon="7.111958740">
        <ele>52.000000</ele>
        <time>2010-01-01T00:04:34Z</time>
      </trkpt>
      <trkpt lat="50.73902710" lon="7.116411200">
        <ele>59.000000</ele>
        <time>2010-01-01T00:06:29Z</time>
      </trkpt>
      <trkpt lat="50.73914260" lon="7.117494820">
        <ele>59.000000</ele>
        <time>2010-01-01T00:06:57Z</time>
      </trkpt>
      <trkpt lat="50.73895380" lon="7.118625640">
        <ele>57.000000</ele>
        <time>2010-01-01T00:07:27Z</time>
      </trkpt>
      <trkpt lat="50.73827350" lon="7.118750090">
        <ele>56.000000</ele>
        <time>2010-01-01T00:07:54Z</time>
      </trkpt>
      <trkpt lat="50.73815800" lon="7.118932480">
        <ele>56.000000</ele>
        <time>2010-01-01T00:08:01Z</time>
      </trkpt>
      <trkpt lat="50.73724140" lon="7.119876620">
        <ele>59.000000</ele>
        <time>2010-01-01T00:08:45Z</time>
      </trkpt>
      <trkpt lat="50.73629210" lon="7.120460270">
        <ele>57.000000</ele>
        <time>2010-01-01T00:09:25Z</time>
      </trkpt>
      <trkpt lat="50.73504950" lon="7.121114730">
        <ele>58.000000</ele>
        <time>2010-01-01T00:10:18Z</time>
      </trkpt>
      <trkpt lat="50.73432840" lon="7.121453760">
        <ele>59.000000</ele>
        <time>2010-01-01T00:10:48Z</time>
      </trkpt>
      <trkpt lat="50.73290910" lon="7.122837780">
        <ele>58.000000</ele>
        <time>2010-01-01T00:11:55Z</time>
      </trkpt>
      <trkpt lat="50.73037070" lon="7.125384800">
        <ele>59.000000</ele>
        <time>2010-01-01T00:13:55Z</time>
      </trkpt>
      <trkpt lat="50.72939820" lon="7.126442670">
        <ele>60.000000</ele>
        <time>2010-01-01T00:14:42Z</time>
      </trkpt>
      <trkpt lat="50.72818260" lon="7.127976890">
        <ele>62.000000</ele>
        <time>2010-01-01T00:15:45Z</time>
      </trkpt>
      <trkpt lat="50.72760530" lon="7.128867380">
        <ele>61.000000</ele>
        <time>2010-01-01T00:16:17Z</time>
      </trkpt>
      <trkpt lat="50.72628230" lon="7.131274930">
        <ele>59.000000</ele>
        <time>2010-01-01T00:17:38Z</time>
      </trkpt>
      <trkpt lat="50.72567650" lon="7.132815590">
        <ele>59.000000</ele>
        <time>2010-01-01T00:18:24Z</time>
      </trkpt>
      <trkpt lat="50.72458300" lon="7.135658740">
        <ele>62.000000</ele>
        <time>2010-01-01T00:19:48Z</time>
      </trkpt>
      <trkpt lat="50.72414840" lon="7.136849640">
        <ele>63.000000</ele>
        <time>2010-01-01T00:20:23Z</time>
      </trkpt>
      <trkpt lat="50.72342160" lon="7.139446020">
        <ele>58.000000</ele>
        <time>2010-01-01T00:21:35Z</time>
      </trkpt>
      <trkpt lat="50.72291900" lon="7.141763440">
        <ele>61.000000</ele>
        <time>2010-01-01T00:22:37Z</time>
      </trkpt>
      <trkpt lat="50.72252500" lon="7.143404960">
        <ele>63.000000</ele>
        <time>2010-01-01T00:23:21Z</time>
      </trkpt>
      <trkpt lat="50.72226020" lon="7.144316910">
        <ele>65.000000</ele>
        <time>2010-01-01T00:23:47Z</time>
      </trkpt>
      <trkpt lat="50.72219900" lon="7.144241800">
        <ele>66.000000</ele>
        <time>2010-01-01T00:23:50Z</time>
      </trkpt>
      <trkpt lat="50.72258620" lon="7.142889970">
        <ele>62.000000</ele>
        <time>2010-01-01T00:24:27Z</time>
      </trkpt>
      <trkpt lat="50.72312950" lon="7.140594000">
        <ele>60.000000</ele>
        <time>2010-01-01T00:25:30Z</time>
      </trkpt>
      <trkpt lat="50.72341480" lon="7.139242170">
        <ele>59.000000</ele>
        <time>2010-01-01T00:26:06Z</time>
      </trkpt>
      <trkpt lat="50.72399890" lon="7.137182230">
        <ele>64.000000</ele>
        <time>2010-01-01T00:27:03Z</time>
      </trkpt>
      <trkpt lat="50.72451510" lon="7.135626550">
        <ele>62.000000</ele>
        <time>2010-01-01T00:27:47Z</time>
      </trkpt>
      <trkpt lat="50.72428420" lon="7.135315410">
        <ele>60.000000</ele>
        <time>2010-01-01T00:27:59Z</time>
      </trkpt>
      <trkpt lat="50.72360500" lon="7.134542940">
        <ele>59.000000</ele>
        <time>2010-01-01T00:28:33Z</time>
      </trkpt>
      <trkpt lat="50.72456270" lon="7.131978750">
        <ele>62.000000</ele>
        <time>2010-01-01T00:29:48Z</time>
      </trkpt>
      <trkpt lat="50.72567650" lon="7.128620620">
        <ele>59.000000</ele>
        <time>2010-01-01T00:31:24Z</time>
      </trkpt>
      <trkpt lat="50.72677680" lon="7.125970600">
        <ele>56.000000</ele>
        <time>2010-01-01T00:32:45Z</time>
      </trkpt>
      <trkpt lat="50.72712310" lon="7.125230310">
        <ele>57.000000</ele>
        <time>2010-01-01T00:33:08Z</time>
      </trkpt>
      <trkpt lat="50.72798560" lon="7.123932120">
        <ele>57.000000</ele>
        <time>2010-01-01T00:33:56Z</time>
      </trkpt>
      <trkpt lat="50.72903150" lon="7.122655390">
        <ele>56.000000</ele>
        <time>2010-01-01T00:34:49Z</time>
      </trkpt>
      <trkpt lat="50.72986000" lon="7.121829270">
        <ele>58.000000</ele>
        <time>2010-01-01T00:35:28Z</time>
      </trkpt>
      <trkpt lat="50.73168000" lon="7.120101920">
        <ele>57.000000</ele>
        <time>2010-01-01T00:36:53Z</time>
      </trkpt>
      <trkpt lat="50.73237400" lon="7.119666330">
        <ele>57.000000</ele>
        <time>2010-01-01T00:37:23Z</time>
      </trkpt>
      <trkpt lat="50.73357460" lon="7.118943210">
        <ele>58.000000</ele>
        <time>2010-01-01T00:38:14Z</time>
      </trkpt>
      <trkpt lat="50.73599880" lon="7.117451900">
        <ele>56.000000</ele>
        <time>2010-01-01T00:39:58Z</time>
      </trkpt>
      <trkpt lat="50.73703770" lon="7.117130040">
        <ele>61.000000</ele>
        <time>2010-01-01T00:40:41Z</time>
      </trkpt>
      <trkpt lat="50.73840310" lon="7.116284600">
        <ele>58.000000</ele>
        <time>2010-01-01T00:41:39Z</time>
      </trkpt>
      <trkpt lat="50.73797200" lon="7.114128110">
        <ele>53.000000</ele>
        <time>2010-01-01T00:42:37Z</time>
      </trkpt>
      <trkpt lat="50.73888860" lon="7.113811610">
        <ele>55.000000</ele>
        <time>2010-01-01T00:43:14Z</time>
      </trkpt>
      <trkpt lat="50.74013520" lon="7.113507980">
        <ele>58.000000</ele>
        <time>2010-01-01T00:44:05Z</time>
      </trkpt>
      <trkpt lat="50.74039250" lon="7.115115160">
        <ele>58.000000</ele>
        <time>2010-01-01T00:44:47Z</time>
      </trkpt>
      <trkpt lat="50.73921790" lon="7.115694520">
        <ele>59.000000</ele>
        <time>2010-01-01T00:45:36Z</time>
      </trkpt>
      <trkpt lat="50.73903800" lon="7.115619420">
        <ele>60.000000</ele>
        <time>2010-01-01T00:45:44Z</time>
      </trkpt>
      <trkpt lat="50.73854230" lon="7.112132540">
        <ele>52.000000</ele>
        <time>2010-01-01T00:47:14Z</time>
      </trkpt>
      <trkpt lat="50.73796860" lon="7.108055590">
        <ele>52.000000</ele>
        <time>2010-01-01T00:49:00Z</time>
      </trkpt>
      <trkpt lat="50.73765630" lon="7.105722060">
        <ele>60.000000</ele>
        <time>2010-01-01T00:50:00Z</time>
      </trkpt>
      <trkpt lat="50.73752720" lon="7.104563350">
        <ele>64.000000</ele>
        <time>2010-01-01T00:50:30Z</time>
      </trkpt>
      <trkpt lat="50.73753060" lon="7.103978630">
        <ele>68.000000</ele>
        <time>2010-01-01T00:50:45Z</time>
      </trkpt>
      <trkpt lat="50.73773090" lon="7.103399270">
        <ele>68.000000</ele>
        <time>2010-01-01T00:51:02Z</time>
      </trkpt>
      <trkpt lat="50.73878680" lon="7.102669710">
        <ele>67.000000</ele>
        <time>2010-01-01T00:51:48Z</time>
      </trkpt>
      <trkpt lat="50.73960490" lon="7.102106450">
        <ele>64.000000</ele>
        <time>2010-01-01T00:52:23Z</time>
      </trkpt>
      <trkpt lat="50.74037560" lon="7.101655840">
        <ele>67.000000</ele>
        <time>2010-01-01T00:52:56Z</time>
      </trkpt>
      <trkpt lat="50.74096960" lon="7.101301780">
        <ele>64.000000</ele>
        <time>2010-01-01T00:53:22Z</time>
      </trkpt>
      <trkpt lat="50.74113940" lon="7.101194500">
        <ele>64.000000</ele>
        <time>2010-01-01T00:53:29Z</time>
      </trkpt>
      <trkpt lat="50.74124120" lon="7.101494900">
        <ele>63.000000</ele>
        <time>2010-01-01T00:53:38Z</time>
      </trkpt>
      <trkpt lat="50.74126500" lon="7.101752400">
        <ele>63.000000</ele>
        <time>2010-01-01T00:53:44Z</time>
      </trkpt>
      <trkpt lat="50.74119710" lon="7.102540960">
        <ele>63.000000</ele>
        <time>2010-01-01T00:54:05Z</time>
      </trkpt>
      <trkpt lat="50.74120050" lon="7.103393910">
        <ele>64.000000</ele>
        <time>2010-01-01T00:54:26Z</time>
      </trkpt>
      <trkpt lat="50.74139060" lon="7.104262940">
        <ele>62.000000</ele>
        <time>2010-01-01T00:54:49Z</time>
      </trkpt>
      <trkpt lat="50.74169270" lon="7.105534310">
        <ele>57.000000</ele>
        <time>2010-01-01T00:55:24Z</time>
      </trkpt>
      <trkpt lat="50.74169610" lon="7.105791800">
        <ele>54.000000</ele>
        <time>2010-01-01T00:55:30Z</time>
      </trkpt>
      <trkpt lat="50.74038570" lon="7.106253140">
        <ele>54.000000</ele>
        <time>2010-01-01T00:56:24Z</time>
      </trkpt>
      <trkpt lat="50.73861020" lon="7.106827130">
        <ele>56.000000</ele>
        <time>2010-01-01T00:57:37Z</time>
      </trkpt>
      <trkpt lat="50.73715380" lon="7.107256290">
        <ele>57.000000</ele>
        <time>2010-01-01T00:58:36Z</time>
      </trkpt>
      <trkpt lat="50.73589420" lon="7.107615700">
        <ele>54.000000</ele>
        <time>2010-01-01T00:59:27Z</time>
      </trkpt>
      <trkpt lat="50.73549360" lon="7.107814190">
        <ele>57.000000</ele>
        <time>2010-01-01T00:59:44Z</time>
      </trkpt>
      <trkpt lat="50.73497410" lon="7.108168240">
        <ele>56.000000</ele>
        <time>2010-01-01T01:00:07Z</time>
      </trkpt>
      <trkpt lat="50.73387750" lon="7.108677860">
        <ele>57.000000</ele>
        <time>2010-01-01T01:00:52Z</time>
      </trkpt>
      <trkpt lat="50.73249220" lon="7.109332320">
        <ele>58.000000</ele>
        <time>2010-01-01T01:01:50Z</time>
      </trkpt>
      <trkpt lat="50.73237670" lon="7.109332320">
        <ele>57.000000</ele>
        <time>2010-01-01T01:01:55Z</time>
      </trkpt>
      <trkpt lat="50.73215600" lon="7.109278670">
        <ele>58.000000</ele>
        <time>2010-01-01T01:02:04Z</time>
      </trkpt>
      <trkpt lat="50.73203380" lon="7.109294770">
        <ele>59.000000</ele>
        <time>2010-01-01T01:02:09Z</time>
      </trkpt>
      <trkpt lat="50.73127660" lon="7.109740010">
        <ele>57.000000</ele>
        <time>2010-01-01T01:02:41Z</time>
      </trkpt>
      <trkpt lat="50.73035650" lon="7.110314010">
        <ele>56.000000</ele>
        <time>2010-01-01T01:03:21Z</time>
      </trkpt>
      <trkpt lat="50.72987770" lon="7.110609050">
        <ele>52.000000</ele>
        <time>2010-01-01T01:03:41Z</time>
      </trkpt>
      <trkpt lat="50.72978260" lon="7.110850450">
        <ele>52.000000</ele>
        <time>2010-01-01T01:03:48Z</time>
      </trkpt>
      <trkpt lat="50.72889640" lon="7.111440530">
        <ele>52.000000</ele>
        <time>2010-01-01T01:04:27Z</time>
      </trkpt>
      <trkpt lat="50.72850650" lon="7.111737720">
        <ele>52.000000</ele>
        <time>2010-01-01T01:04:44Z</time>
      </trkpt>
      <trkpt lat="50.72788510" lon="7.112300990">
        <ele>52.000000</ele>
        <time>2010-01-01T01:05:13Z</time>
      </trkpt>
      <trkpt lat="50.72736490" lon="7.112840650">
        <ele>52.000000</ele>
        <time>2010-01-01T01:05:38Z</time>
      </trkpt>
      <trkpt lat="50.72705590" lon="7.113130330">
        <ele>54.000000</ele>
        <time>2010-01-01T01:05:52Z</time>
      </trkpt>
      <trkpt lat="50.72598620" lon="7.114390960">
        <ele>52.000000</ele>
        <time>2010-01-01T01:06:46Z</time>
      </trkpt>
      <trkpt lat="50.72556170" lon="7.114927410">
        <ele>53.000000</ele>
        <time>2010-01-01T01:07:07Z</time>
      </trkpt>
      <trkpt lat="50.72506930" lon="7.115597960">
        <ele>52.000000</ele>
        <time>2010-01-01T01:07:33Z</time>
      </trkpt>
      <trkpt lat="50.72446150" lon="7.116461630">
        <ele>52.000000</ele>
        <time>2010-01-01T01:08:06Z</time>
      </trkpt>
      <trkpt lat="50.72372450" lon="7.117636440">
        <ele>54.000000</ele>
        <time>2010-01-01T01:08:48Z</time>
      </trkpt>
      <trkpt lat="50.72257330" lon="7.119492530">
        <ele>60.000000</ele>
        <time>2010-01-01T01:09:54Z</time>
      </trkpt>
      <trkpt lat="50.72145930" lon="7.121477360">
        <ele>58.000000</ele>
        <time>2010-01-01T01:11:01Z</time>
      </trkpt>
      <trkpt lat="50.72093630" lon="7.122786280">
        <ele>57.000000</ele>
        <time>2010-01-01T01:11:40Z</time>
      </trkpt>
      <trkpt lat="50.72016200" lon="7.124797940">
        <ele>53.000000</ele>
        <time>2010-01-01T01:12:40Z</time>
      </trkpt>
      <trkpt lat="50.71979860" lon="7.125967380">
        <ele>52.000000</ele>
        <time>2010-01-01T01:13:13Z</time>
      </trkpt>
      <trkpt lat="50.71958530" lon="7.126688360">
        <ele>52.000000</ele>
        <time>2010-01-01T01:13:33Z</time>
      </trkpt>
      <trkpt lat="50.71912270" lon="7.128606670">
        <ele>52.000000</ele>
        <time>2010-01-01T01:14:25Z</time>
      </trkpt>
      <trkpt lat="50.71898420" lon="7.128614180">
        <ele>52.000000</ele>
        <time>2010-01-01T01:14:31Z</time>
      </trkpt>
      <trkpt lat="50.71889860" lon="7.128703230">
        <ele>52.000000</ele>
        <time>2010-01-01T01:14:35Z</time>
      </trkpt>
      <trkpt lat="50.71881370" lon="7.128976820">
        <ele>52.000000</ele>
        <time>2010-01-01T01:14:43Z</time>
      </trkpt>
      <trkpt lat="50.71841290" lon="7.129797570">
        <ele>54.000000</ele>
        <time>2010-01-01T01:15:09Z</time>
      </trkpt>
      <trkpt lat="50.71811740" lon="7.130570050">
        <ele>55.000000</ele>
        <time>2010-01-01T01:15:32Z</time>
      </trkpt>
      <trkpt lat="50.71749250" lon="7.132619260">
        <ele>57.000000</ele>
        <time>2010-01-01T01:16:29Z</time>
      </trkpt>
      <trkpt lat="50.71733960" lon="7.132898210">
        <ele>57.000000</ele>
        <time>2010-01-01T01:16:39Z</time>
      </trkpt>
      <trkpt lat="50.71713580" lon="7.133037680">
        <ele>58.000000</ele>
        <time>2010-01-01T01:16:48Z</time>
      </trkpt>
      <trkpt lat="50.71644630" lon="7.133515110">
        <ele>61.000000</ele>
        <time>2010-01-01T01:17:18Z</time>
      </trkpt>
      <trkpt lat="50.71631050" lon="7.133617040">
        <ele>61.000000</ele>
        <time>2010-01-01T01:17:24Z</time>
      </trkpt>
      <trkpt lat="50.71619500" lon="7.133622400">
        <ele>61.000000</ele>
        <time>2010-01-01T01:17:28Z</time>
      </trkpt>
      <trkpt lat="50.71605570" lon="7.133499020">
        <ele>62.000000</ele>
        <time>2010-01-01T01:17:35Z</time>
      </trkpt>
      <trkpt lat="50.71583840" lon="7.132635350">
        <ele>61.000000</ele>
        <time>2010-01-01T01:17:58Z</time>
      </trkpt>
      <trkpt lat="50.71578740" lon="7.132426140">
        <ele>60.000000</ele>
        <time>2010-01-01T01:18:04Z</time>
      </trkpt>
      <trkpt lat="50.71568210" lon="7.132318850">
        <ele>59.000000</ele>
        <time>2010-01-01T01:18:09Z</time>
      </trkpt>
      <trkpt lat="50.71554960" lon="7.132351040">
        <ele>59.000000</ele>
        <time>2010-01-01T01:18:14Z</time>
      </trkpt>
      <trkpt lat="50.71528470" lon="7.132383220">
        <ele>58.000000</ele>
        <time>2010-01-01T01:18:25Z</time>
      </trkpt>
      <trkpt lat="50.71511150" lon="7.132436870">
        <ele>57.000000</ele>
        <time>2010-01-01T01:18:32Z</time>
      </trkpt>
      <trkpt lat="50.71474120" lon="7.132957220">
        <ele>57.000000</ele>
        <time>2010-01-01T01:18:52Z</time>
      </trkpt>
      <trkpt lat="50.71462580" lon="7.133171790">
        <ele>59.000000</ele>
        <time>2010-01-01T01:18:59Z</time>
      </trkpt>
      <trkpt lat="50.71448650" lon="7.133257620">
        <ele>60.000000</ele>
        <time>2010-01-01T01:19:05Z</time>
      </trkpt>
      <trkpt lat="50.71427930" lon="7.133187890">
        <ele>62.000000</ele>
        <time>2010-01-01T01:19:14Z</time>
      </trkpt>
      <trkpt lat="50.71406870" lon="7.133262990">
        <ele>63.000000</ele>
        <time>2010-01-01T01:19:22Z</time>
      </trkpt>
      <trkpt lat="50.71356600" lon="7.133981820">
        <ele>62.000000</ele>
        <time>2010-01-01T01:19:49Z</time>
      </trkpt>
      <trkpt lat="50.71258770" lon="7.135505310">
        <ele>63.000000</ele>
        <time>2010-01-01T01:20:44Z</time>
      </trkpt>
      <trkpt lat="50.71135470" lon="7.137699360">
        <ele>60.000000</ele>
        <time>2010-01-01T01:21:59Z</time>
      </trkpt>
      <trkpt lat="50.71026760" lon="7.139566180">
        <ele>60.000000</ele>
        <time>2010-01-01T01:23:03Z</time>
      </trkpt>
      <trkpt lat="50.70960520" lon="7.140242090">
        <ele>66.000000</ele>
        <time>2010-01-01T01:23:35Z</time>
      </trkpt>
      <trkpt lat="50.70906850" lon="7.140757080">
        <ele>66.000000</ele>
        <time>2010-01-01T01:24:00Z</time>
      </trkpt>
      <trkpt lat="50.70870840" lon="7.141266700">
        <ele>67.000000</ele>
        <time>2010-01-01T01:24:19Z</time>
      </trkpt>
      <trkpt lat="50.70794070" lon="7.142650720">
        <ele>64.000000</ele>
        <time>2010-01-01T01:25:06Z</time>
      </trkpt>
      <trkpt lat="50.70704720" lon="7.144329780">
        <ele>61.000000</ele>
        <time>2010-01-01T01:26:01Z</time>
      </trkpt>
      <trkpt lat="50.70623530" lon="7.145874730">
        <ele>62.000000</ele>
        <time>2010-01-01T01:26:52Z</time>
      </trkpt>
      <trkpt lat="50.70567470" lon="7.146861790">
        <ele>63.000000</ele>
        <time>2010-01-01T01:27:26Z</time>
      </trkpt>
      <trkpt lat="50.70518210" lon="7.147768370">
        <ele>67.000000</ele>
        <time>2010-01-01T01:27:56Z</time>
      </trkpt>
      <trkpt lat="50.70433280" lon="7.149345510">
        <ele>66.000000</ele>
        <time>2010-01-01T01:28:49Z</time>
      </trkpt>
      <trkpt lat="50.70416630" lon="7.149624460">
        <ele>65.000000</ele>
        <time>2010-01-01T01:28:58Z</time>
      </trkpt>
      <trkpt lat="50.70344260" lon="7.150745630">
        <ele>65.000000</ele>
        <time>2010-01-01T01:29:39Z</time>
      </trkpt>
      <trkpt lat="50.70371780" lon="7.150273560">
        <ele>65.000000</ele>
        <time>2010-01-01T01:29:55Z</time>
      </trkpt>
      <trkpt lat="50.70411190" lon="7.149672740">
        <ele>65.000000</ele>
        <time>2010-01-01T01:30:17Z</time>
      </trkpt>
      <trkpt lat="50.70446860" lon="7.149093380">
        <ele>66.000000</ele>
        <time>2010-01-01T01:30:38Z</time>
      </trkpt>
      <trkpt lat="50.70528740" lon="7.147575250">
        <ele>66.000000</ele>
        <time>2010-01-01T01:31:28Z</time>
      </trkpt>
      <trkpt lat="50.70563730" lon="7.146840330">
        <ele>63.000000</ele>
        <time>2010-01-01T01:31:51Z</time>
      </trkpt>
      <trkpt lat="50.70580040" lon="7.146480910">
        <ele>62.000000</ele>
        <time>2010-01-01T01:32:03Z</time>
      </trkpt>
      <trkpt lat="50.70663610" lon="7.144887680">
        <ele>59.000000</ele>
        <time>2010-01-01T01:32:55Z</time>
      </trkpt>
      <trkpt lat="50.70700640" lon="7.144211760">
        <ele>61.000000</ele>
        <time>2010-01-01T01:33:18Z</time>
      </trkpt>
      <trkpt lat="50.70839590" lon="7.141669030">
        <ele>65.000000</ele>
        <time>2010-01-01T01:34:43Z</time>
      </trkpt>
      <trkpt lat="50.70880010" lon="7.140891190">
        <ele>67.000000</ele>
        <time>2010-01-01T01:35:08Z</time>
      </trkpt>
      <trkpt lat="50.70912620" lon="7.140440580">
        <ele>66.000000</ele>
        <time>2010-01-01T01:35:26Z</time>
      </trkpt>
      <trkpt lat="50.70954070" lon="7.140032880">
        <ele>66.000000</ele>
        <time>2010-01-01T01:35:45Z</time>
      </trkpt>
      <trkpt lat="50.71026420" lon="7.139330140">
        <ele>60.000000</ele>
        <time>2010-01-01T01:36:19Z</time>
      </trkpt>
      <trkpt lat="50.71100820" lon="7.138080230">
        <ele>58.000000</ele>
        <time>2010-01-01T01:37:03Z</time>
      </trkpt>
      <trkpt lat="50.71117800" lon="7.137812010">
        <ele>60.000000</ele>
        <time>2010-01-01T01:37:12Z</time>
      </trkpt>
      <trkpt lat="50.71201710" lon="7.136272430">
        <ele>65.000000</ele>
        <time>2010-01-01T01:38:04Z</time>
      </trkpt>
      <trkpt lat="50.71279490" lon="7.134899130">
        <ele>62.000000</ele>
        <time>2010-01-01T01:38:51Z</time>
      </trkpt>
      <trkpt lat="50.71399060" lon="7.133080600">
        <ele>64.000000</ele>
        <time>2010-01-01T01:39:57Z</time>
      </trkpt>
      <trkpt lat="50.71416380" lon="7.132871380">
        <ele>64.000000</ele>
        <time>2010-01-01T01:40:06Z</time>
      </trkpt>
      <trkpt lat="50.71433030" lon="7.132839200">
        <ele>61.000000</ele>
        <time>2010-01-01T01:40:12Z</time>
      </trkpt>
      <trkpt lat="50.71492130" lon="7.131819960">
        <ele>57.000000</ele>
        <time>2010-01-01T01:40:48Z</time>
      </trkpt>
      <trkpt lat="50.71510470" lon="7.131283520">
        <ele>58.000000</ele>
        <time>2010-01-01T01:41:03Z</time>
      </trkpt>
      <trkpt lat="50.71514210" lon="7.130650520">
        <ele>59.000000</ele>
        <time>2010-01-01T01:41:19Z</time>
      </trkpt>
      <trkpt lat="50.71506390" lon="7.130055060">
        <ele>61.000000</ele>
        <time>2010-01-01T01:41:35Z</time>
      </trkpt>
      <trkpt lat="50.71489410" lon="7.129534720">
        <ele>63.000000</ele>
        <time>2010-01-01T01:41:49Z</time>
      </trkpt>
      <trkpt lat="50.71475480" lon="7.129057280">
        <ele>64.000000</ele>
        <time>2010-01-01T01:42:03Z</time>
      </trkpt>
      <trkpt lat="50.71444910" lon="7.127705450">
        <ele>64.000000</ele>
        <time>2010-01-01T01:42:39Z</time>
      </trkpt>
      <trkpt lat="50.71425890" lon="7.126798860">
        <ele>66.000000</ele>
        <time>2010-01-01T01:43:03Z</time>
      </trkpt>
      <trkpt lat="50.71406670" lon="7.126084320">
        <ele>62.000000</ele>
        <time>2010-01-01T01:43:23Z</time>
      </trkpt>
      <trkpt lat="50.71455580" lon="7.125826830">
        <ele>67.000000</ele>
        <time>2010-01-01T01:43:44Z</time>
      </trkpt>
      <trkpt lat="50.71488190" lon="7.127114290">
        <ele>68.000000</ele>
        <time>2010-01-01T01:44:19Z</time>
      </trkpt>
      <trkpt lat="50.71497560" lon="7.127383580">
        <ele>67.000000</ele>
        <time>2010-01-01T01:44:27Z</time>
      </trkpt>
      <trkpt lat="50.71516240" lon="7.127464050">
        <ele>66.000000</ele>
        <time>2010-01-01T01:44:34Z</time>
      </trkpt>
      <trkpt lat="50.71532550" lon="7.126493090">
        <ele>70.000000</ele>
        <time>2010-01-01T01:45:00Z</time>
      </trkpt>
      <trkpt lat="50.71540700" lon="7.126262420">
        <ele>71.000000</ele>
        <time>2010-01-01T01:45:06Z</time>
      </trkpt>
      <trkpt lat="50.71568550" lon="7.125929830">
        <ele>69.000000</ele>
        <time>2010-01-01T01:45:20Z</time>
      </trkpt>
      <trkpt lat="50.71582820" lon="7.125736710">
        <ele>67.000000</ele>
        <time>2010-01-01T01:45:28Z</time>
      </trkpt>
      <trkpt lat="50.71582140" lon="7.125650880">
        <ele>67.000000</ele>
        <time>2010-01-01T01:45:30Z</time>
      </trkpt>
      <trkpt lat="50.71572630" lon="7.125447030">
        <ele>67.000000</ele>
        <time>2010-01-01T01:45:37Z</time>
      </trkpt>
      <trkpt lat="50.71572970" lon="7.125270000">
        <ele>66.000000</ele>
        <time>2010-01-01T01:45:41Z</time>
      </trkpt>
      <trkpt lat="50.71578400" lon="7.125146620">
        <ele>65.000000</ele>
        <time>2010-01-01T01:45:45Z</time>
      </trkpt>
      <trkpt lat="50.71689130" lon="7.123789420">
        <ele>63.000000</ele>
        <time>2010-01-01T01:46:41Z</time>
      </trkpt>
      <trkpt lat="50.71713580" lon="7.123510470">
        <ele>63.000000</ele>
        <time>2010-01-01T01:46:53Z</time>
      </trkpt>
      <trkpt lat="50.71671810" lon="7.122362490">
        <ele>67.000000</ele>
        <time>2010-01-01T01:47:27Z</time>
      </trkpt>
      <trkpt lat="50.71681660" lon="7.122190830">
        <ele>68.000000</ele>
        <time>2010-01-01T01:47:32Z</time>
      </trkpt>
      <trkpt lat="50.71740410" lon="7.121488090">
        <ele>66.000000</ele>
        <time>2010-01-01T01:48:02Z</time>
      </trkpt>
      <trkpt lat="50.71782530" lon="7.120946280">
        <ele>64.000000</ele>
        <time>2010-01-01T01:48:24Z</time>
      </trkpt>
      <trkpt lat="50.71739400" lon="7.119948500">
        <ele>61.000000</ele>
        <time>2010-01-01T01:48:54Z</time>
      </trkpt>
      <trkpt lat="50.71813780" lon="7.119004360">
        <ele>62.000000</ele>
        <time>2010-01-01T01:49:33Z</time>
      </trkpt>
      <trkpt lat="50.71896990" lon="7.118028040">
        <ele>63.000000</ele>
        <time>2010-01-01T01:50:14Z</time>
      </trkpt>
      <trkpt lat="50.71981900" lon="7.116686940">
        <ele>64.000000</ele>
        <time>2010-01-01T01:51:02Z</time>
      </trkpt>
      <trkpt lat="50.72046090" lon="7.115887640">
        <ele>64.000000</ele>
        <time>2010-01-01T01:51:35Z</time>
      </trkpt>
      <trkpt lat="50.72150690" lon="7.114793300">
        <ele>66.000000</ele>
        <time>2010-01-01T01:52:25Z</time>
      </trkpt>
      <trkpt lat="50.72289590" lon="7.113645310">
        <ele>67.000000</ele>
        <time>2010-01-01T01:53:28Z</time>
      </trkpt>
      <trkpt lat="50.72349020" lon="7.113173240">
        <ele>66.000000</ele>
        <time>2010-01-01T01:53:54Z</time>
      </trkpt>
      <trkpt lat="50.72482480" lon="7.112223740">
        <ele>66.000000</ele>
        <time>2010-01-01T01:54:53Z</time>
      </trkpt>
      <trkpt lat="50.72559230" lon="7.111708760">
        <ele>64.000000</ele>
        <time>2010-01-01T01:55:26Z</time>
      </trkpt>
      <trkpt lat="50.72665520" lon="7.110930910">
        <ele>65.000000</ele>
        <time>2010-01-01T01:56:13Z</time>
      </trkpt>
      <trkpt lat="50.72722230" lon="7.110517850">
        <ele>67.000000</ele>
        <time>2010-01-01T01:56:38Z</time>
      </trkpt>
      <trkpt lat="50.72874360" lon="7.109412780">
        <ele>65.000000</ele>
        <time>2010-01-01T01:57:45Z</time>
      </trkpt>
      <trkpt lat="50.72984370" lon="7.108651040">
        <ele>66.000000</ele>
        <time>2010-01-01T01:58:33Z</time>
      </trkpt>
      <trkpt lat="50.73152450" lon="7.107562060">
        <ele>64.000000</ele>
        <time>2010-01-01T01:59:46Z</time>
      </trkpt>
      <trkpt lat="50.73177580" lon="7.107368940">
        <ele>64.000000</ele>
        <time>2010-01-01T01:59:57Z</time>
      </trkpt>
      <trkpt lat="50.73166030" lon="7.106971970">
        <ele>64.000000</ele>
        <time>2010-01-01T02:00:08Z</time>
      </trkpt>
      <trkpt lat="50.73144640" lon="7.106188770">
        <ele>65.000000</ele>
        <time>2010-01-01T02:00:30Z</time>
      </trkpt>
      <trkpt lat="50.73131400" lon="7.105689880">
        <ele>66.000000</ele>
        <time>2010-01-01T02:00:44Z</time>
      </trkpt>
      <trkpt lat="50.73104910" lon="7.104944220">
        <ele>66.000000</ele>
        <time>2010-01-01T02:01:05Z</time>
      </trkpt>
      <trkpt lat="50.73109330" lon="7.104649180">
        <ele>66.000000</ele>
        <time>2010-01-01T02:01:13Z</time>
      </trkpt>
      <trkpt lat="50.73208470" lon="7.102658980">
        <ele>64.000000</ele>
        <time>2010-01-01T02:02:17Z</time>
      </trkpt>
      <trkpt lat="50.73269590" lon="7.101425170">
        <ele>68.000000</ele>
        <time>2010-01-01T02:02:57Z</time>
      </trkpt>
      <trkpt lat="50.73297430" lon="7.100802890">
        <ele>67.000000</ele>
        <time>2010-01-01T02:03:16Z</time>
      </trkpt>
      <trkpt lat="50.73326630" lon="7.100566860">
        <ele>68.000000</ele>
        <time>2010-01-01T02:03:29Z</time>
      </trkpt>
      <trkpt lat="50.73348020" lon="7.100320100">
        <ele>69.000000</ele>
        <time>2010-01-01T02:03:40Z</time>
      </trkpt>
      <trkpt lat="50.73359230" lon="7.100084060">
        <ele>69.000000</ele>
        <time>2010-01-01T02:03:47Z</time>
      </trkpt>
      <trkpt lat="50.73434600" lon="7.098131410">
        <ele>68.000000</ele>
        <time>2010-01-01T02:04:45Z</time>
      </trkpt>
      <trkpt lat="50.73447840" lon="7.097825640">
        <ele>69.000000</ele>
        <time>2010-01-01T02:04:55Z</time>
      </trkpt>
      <trkpt lat="50.73468890" lon="7.097621790">
        <ele>67.000000</ele>
        <time>2010-01-01T02:05:05Z</time>
      </trkpt>
      <trkpt lat="50.73515410" lon="7.098147510">
        <ele>67.000000</ele>
        <time>2010-01-01T02:05:27Z</time>
      </trkpt>
      <trkpt lat="50.73526270" lon="7.098260160">
        <ele>67.000000</ele>
        <time>2010-01-01T02:05:33Z</time>
      </trkpt>
      <trkpt lat="50.73575570" lon="7.098267670">
        <ele>67.000000</ele>
        <time>2010-01-01T02:05:52Z</time>
      </trkpt>
      <trkpt lat="50.73576860" lon="7.098372810">
        <ele>67.000000</ele>
        <time>2010-01-01T02:05:55Z</time>
      </trkpt>
      <trkpt lat="50.73571090" lon="7.098780510">
        <ele>67.000000</ele>
        <time>2010-01-01T02:06:06Z</time>
      </trkpt>
      <trkpt lat="50.73576180" lon="7.099306220">
        <ele>67.000000</ele>
        <time>2010-01-01T02:06:19Z</time>
      </trkpt>
      <trkpt lat="50.73574480" lon="7.100067970">
        <ele>66.000000</ele>
        <time>2010-01-01T02:06:39Z</time>
      </trkpt>
      <trkpt lat="50.73558870" lon="7.101108670">
        <ele>69.000000</ele>
        <time>2010-01-01T02:07:06Z</time>
      </trkpt>
      <trkpt lat="50.73558530" lon="7.101527090">
        <ele>70.000000</ele>
        <time>2010-01-01T02:07:16Z</time>
      </trkpt>
    </trkseg>
  </trk>
</gpx>

